Name of School,Address,Town,Latitude,Longitude,Category of School,Private or Public (GES Schools),Region,District,Circuit,First Name,Last Name,Contact Number,Contact Email,Number of Classrooms,Boarding Facilities?,Sanitary Facilities?,Science or Teachnical Laboratory?,Assembly Hall?,Library Facilities?,Dining Facilities?,School Bus?,Sporting Facilities?,Staff Accommodation?,Description
TEPA SENIOR HIGH SCHOOL,,TEPA,"7?00'53.7""N","2?09'18.7""W",SHS,Public,ASHANTI,AHAFO ANO NORTH,,,,+233 32 249 1190,tepashs@ges.gov.gh,,YES,,,,,,,,,
MAABANG SENIOR HIGH/TECH SCHOOL,,MAABANG,"6?59'55.9""N","2?12'51.2""W",SHS,Public,ASHANTI,AHAFO ANO NORTH,,,,+233 27 785 8643,maabangshst@ges.gov.gh,,YES,,,,,,,,,
"SABRONUM METHODIST SENIOR HIGH/TECH
SCHOOL",,"SABRONUM/HABI
TAT","7?04'41.6""N","˜1?53'16.8""W",SHS,Public,ASHANTI,AHAFO ANO SOUTH,,,,+233 26 160 1736,sabronummethodistshst@ges.gov.gh,,NO,,,,,,,,,
ADUGYAMA COMM. SENIOR HIGH SCHOOL,,ADUGYAMA,"6?52'27.6""N","1?52'33.1""W",SHS,Public,ASHANTI,AHAFO ANO SOUTH,,,,+233 24 794 7010,adugyamacommshs@ges.gov.gh,,NO,,,,,,,,,
MANKRANSO SENIOR HIGH SCHOOL,,MANKRANSO,"6?49'33.1""N","1?52'07.0""W",SHS,Public,ASHANTI,AHAFO ANO SOUTH,,,,+233 26 675 8100,mankransoshs@ges.gov.gh,,YES,,,,,,,,,
TWEAPEASE SENIOR HIGH SCHOOL,,TWEAPEASE,"6?08'36.0""N","˜1?43'54.4""W",SHS,Public,ASHANTI,AMANSIE CENTRAL,,,,O54 107 5823,tweapeaseshs@ges.gov.gh,,NO,,,,,,,,,
JACOBU SENIOR HIGH/TECH. SCHOOL,,JACOBU,"6?21'16.5""N","1?39'51.8""W",SHS,Public,ASHANTI,AMANSIE CENTRAL,,,,+233 24 353 3956,jacobushst@ges.gov.gh,,YES,,,,,,,,,
ESAASE BONTEFUFUO SNR. HIGH/TECH. SCHOOL,,"ESAASE
BONTEFUFUO","6?33'46.7""N","1?53'04.3""W",SHS,Public,ASHANTI,AMANSIE WEST,,,,+233 20 729 7425,esaasebontefufuoshst@ges.gov.gh,,YES,,,,,,,,,
MANSOMAN SENIOR HIGH SCHOOL,,MANSO ATWERE,"6?27'15.6""N","1?51'28.3""W",SHS,Public,ASHANTI,AMANSIE WEST,,,,+233 24 336 0255,mansomanshs@ges.gov.gh,,YES,,,,,,,,,
MANSO-ADUBIA SENIOR HIGH SCHOOL,,ADUBIA,"6?24'13.4""N","1?55'33.7""W",SHS,Public,ASHANTI,AMANSIE WEST,,,,+233 20 136 1900,manso-adubiashs@ges.gov.gh,,YES,,,,,,,,,
"WESLEY SENIOR HIGH SCHOOL, KONONGO",,KONONGO,"6?38'06.3""N","1?12'20.0""W",SHS,Public,ASHANTI,"ASANTE AKIM CENTRAL
MUNICIPAL",,,,+233 24 438 9073,wesleykonongoshs@ges.gov.gh,,YES,,,,,,,,,
"ST. MARY'S GIRL'S SENIOR HIGH, KONONGO",,KONONGO,"6?37'16.0""N","1?12'57.5""W",SHS,Public,ASHANTI,"ASANTE AKIM CENTRAL
MUNICIPAL",,,,+233 24 487 5214,st.marygirlkonongoshs@ges.gov.gh,,YES,,,,,,,,,
KONONGO ODUMASE SENIOR HIGH SCHOOL,,ODUMASE,"6?37'15.0""N","1?13'38.8""W",SHS,Public,ASHANTI,"ASANTE AKIM CENTRAL
MUNICIPAL",,,,+233 20 247 5741,konongoodumaseshs@ges.gov.gh,,YES,,,,,,,,,
AGOGO STATE COLLEGE,,AGOGO,"6?47'56.6""N","1?04'24.9""W",SHS,Public,ASHANTI,ASANTE AKIM NORTH,,,,+233 20 463 0371,agogostatecollegeshs@ges.gov.gh,,YES,,,,,,,,,
"COLLINS SENIOR HIGH/COMMERCIAL SCHOOL,
AGOGO",,AGOGO,"6?48'10.7""N","1?05'04.6""W",SHS,Public,ASHANTI,ASANTE AKIM NORTH,,,,+233 20 819 9706,collincomshs@ges.gov.gh,,YES,,,,,,,,,
OWERRIMAN SENIOR HIGH SCHOOL,,DOMEABRA,"6?43'07.9""N","1?08'45.1""W",SHS,Public,ASHANTI,ASANTE AKIM NORTH,,,,+233 24 486 8803,owerrimanshs@ges.gov.gh,,YES,,,,,,,,,
KUROFA METHODIST SENIOR HIGH SCHOOL,,KUROFA,"6?40'55.9""N","1?06'28.1""W",SHS,Public,ASHANTI,ASANTE AKIM SOUTH,,,,+233 26 160 1736,kurofamethodistshs@ges.gov.gh,,NO,,,,,,,,,
BOMPATA PRESBY SENIOR HIGH SCHOOL,,BOMPATA,"6?37'39.1""N","1?03'40.8""W",SHS,Public,ASHANTI,ASANTE AKIM SOUTH,,,,+233 24 333 8338,presbybompatashs@ges.gov.gh,,YES,,,,,,,,,
JUASO SENIOR HIGH/TECH SCHOOL,,JUASO,"6?35'35.2""N","1?07'22.8""W",SHS,Public,ASHANTI,ASANTE AKIM SOUTH,,,,+233 24 353 3956,juasoshs@ges.gov.gh,,YES,,,,,,,,,
JUBILEE SENIOR HIGH SCHOOL,,DAMPONG,"5?32'45.3""N","0?18'55.4""W",SHS,Public,ASHANTI,ASANTE AKIM SOUTH,,,,055 511 6312,jubileeshs@ges.gov.gh,,YES,,,,,,,,,
OFOASE SENIOR HIGH/TECH SCHOOL,,OFOASE,"6?23'55.6""N","1?16'54.4""W",SHS,Public,ASHANTI,ASANTE AKIM SOUTH,,,,+233 54 169 6471,ofoaseshs@ges.gov.gh,,YES,,,,,,,,,
BANKA COMM. SENIOR HIGH SCHOOL,,BANKA,"6?17'40.1""N","1?12'26.6""W",SHS,Public,ASHANTI,ASANTE AKIM SOUTH,,,,+233 24 335 0810,bankacommsshs@ges.gov.gh,,NO,,,,,,,,,
PARKOSO COMM. SENIOR HIGH SCHOOL,,PARKOSO,"6?43'33.1""N","1?32'26.4""W",SHS,Public,ASHANTI,"ASOKORE MAMPONG
MUNICIPAL",,,,+233 24 660 7080,parkosocommshs@ges.gov.gh,,NO,,,,,,,,,
KUMASI ACADEMY,,"ASOKORE
MAMPONG","6?42'39.8""N","1?34'20.4""W",SHS,Public,ASHANTI,"ASOKORE MAMPONG
MUNICIPAL",,,,+233 24 427 5866,kumasiacademyshs@ges.gov.gh,,YES,,,,,,,,,
SAKAFIA ISLAMIC SENIOR HIGH SCHOOL,,SAWABA,"6?41'59.7""N","1?34'22.9""W",SHS,Public,ASHANTI,"ASOKORE MAMPONG
MUNICIPAL",,,,+233 26 844 4619,sakafiaislamicshs@ges.gov.gh,,YES,,,,,,,,,
AFUA KOBI AMPEM GIRLS' SENIOR HIGH SCHOOL,,TRABUOM,"6?37'06.5""N","1?46'01.3""W",SHS,Public,ASHANTI,ATWIMA KWANWOMA,,,,+233 24 429 7335,afuakobiampemgirlsshs@ges.gov.gh,,YES,,,,,,,,,
ATWIMA KWANWOMA SENIOR HIGH/TECH SCHOOL,,TREDE,"6?34'51.3""N","1?40'47.4""W",SHS,Public,ASHANTI,ATWIMA KWANWOMA,,,,+233 20 917 2634,atwimakwanwomashst@ges.gov.gh,,YES,,,,,,,,,
KWANWOMA SENIOR HIGH SCHOOL,,"ADUM
KWANWOMA","6?34'47.6""N","1?40'47.4""W",SHS,Public,ASHANTI,ATWIMA KWANWOMA,,,,+233 20 917 2634,kwanwomashst@ges.gov.gh,,NO,,,,,,,,,
MPASATIA SENIOR HIGH/TECH SCHOOL,,MPASATIA,"6?39'56.2""N","1?50'41.0""W",SHS,Public,ASHANTI,ATWIMA MPONUA,,,,+233 24 478 1673,mpasatiashst@ges.gov.gh,,YES,,,,,,,,,
NYINAHIN CATH. SENIOR HIGH SCHOOL,,NYINAHIN,"6?36'44.4""N","2?05'16.8""W",SHS,Public,ASHANTI,ATWIMA MPONUA,,,,+233 55 379 9970,nyinahincathshs@ges.gov.gh,,YES,,,,,,,,,
ADOBEWORA COMM. SENIOR HIGH SCHOOL,,ADOBEWORA,"6?32'45.2""N","2?00'11.3""W",SHS,Public,ASHANTI,ATWIMA MPONUA,,,,+233 24 942 9084,adobeworacommshs@ges.gov.gh,,NO,,,,,,,,,
BAREKESE SENIOR HIGH SCHOOL,,BAREKESE,"6?51'19.9""N","1?43'35.9""W",SHS,Public,ASHANTI,ATWIMA NWABIAGYA,,,,+233 24 252 3323,barekeseshs@ges.gov.gh,,YES,,,,,,,,,
"OSEI TUTU SENIOR HIGH SCHOOL, AKROPONG",,AKROPONG,"6?44'34.6""N","1?43'20.5""W",SHS,Public,ASHANTI,ATWIMA NWABIAGYA,,,,+233 24 330 7213,oseitutuakropongshs@ges.gov.gh,,YES,,,,,,,,,
NKAWIE SENIOR HIGH/TECH SCHOOL,,NKAWIE,"6?40'13.6""N","1?48'18.5""W",SHS,Public,ASHANTI,ATWIMA NWABIAGYA,,,,+233 24 492 6680,nkawieshst@ges.gov.gh,,YES,,,,,,,,,
TOASE SENIOR HIGH SCHOOL,,TOASE,"6?39'46.6""N","1?48'36.8""W",SHS,Public,ASHANTI,ATWIMA NWABIAGYA,,,,+233 24 614 3802,toaseshs@ges.gov.gh,,YES,,,,,,,,,
OPPONG MEM. SENIOR HIGH SCHOOL,,KOKOFU,"6?30'50.3""N","1?32'14.2""W",SHS,Public,ASHANTI,BEKWAI MUNICIPAL,,,,+233 24 445 5810,oppongmemshs@ges.gov.gh,,YES,,,,,,,,,
OFOASE KOKOBEN SENIOR HIGH SCHOOL,,"OFOASE
KOKOBIN","6?28'53.1""N","1?38'19.8""W",SHS,Public,ASHANTI,BEKWAI MUNICIPAL,,,,+233 20 691 4152,ofoasekokobenshs@ges.gov.gh,,YES,,,,,,,,,
"S.D.A. SENIOR HIGH SCHOOL, BEKWAI",,BEKWAI,"6?27'57.0""N","1?34'37.3""W",SHS,Public,ASHANTI,BEKWAI MUNICIPAL,,,,+233 20 818 8910,sdabekwaishs@ges.gov.gh,,YES,,,,,,,,,
"WESLEY HIGH SCHOOL, BEKWAI",,BEKWAI,"6?28'00.1""N","1?34'03.3""W",SHS,Public,ASHANTI,BEKWAI MUNICIPAL,,,,+233 24 308 2688,wesleyhighbekwaishs@ges.gov.gh,,YES,,,,,,,,,
"ST. JOSEPH SENIOR HIGH/TECH SCHOOL, AHWIREN",,AHWIREN,"6?27'46.4""N","1?30'33.8""W",SHS,Public,ASHANTI,BEKWAI MUNICIPAL,,,,+233 50 325 0796,st.josephahwirenshst@ges.gov.gh,,YES,,,,,,,,,
DENYASEMAN CATH.SENIOR HIGH SCHOOL,,POANO,"6?26'54.5""N","1?40'35.5""W",SHS,Public,ASHANTI,BEKWAI MUNICIPAL,,,,+233 20 819 9706,denyasemancathshs@ges.gov.gh,,YES,,,,,,,,,
BOSOME SENIOR HIGH/TECH. SCHOOL,,ASIWA,"6?25'27.5""N","1?19'50.4""W",SHS,Public,ASHANTI,BOSOME FREHO,,,,+233 24 473 1426,bosomeshst@ges.gov.gh,,YES,,,,,,,,,
ST. MICHAEL TECH/VOC INST,,PRAMSO,"6?53'22.7""N","1?38'05.4""W",TVET,Public,ASHANTI,BOSOMTWE,,,,+233 32 249 1190,st.michaeltechvocinst@ges.gov.gh,,NO,,,,,,,,,
JACHIE PRAMSO SENIOR HIGH SCHOOL,,JACHIE PRAMSO,"6?34'12.0""N","1?30'52.7""W",SHS,Public,ASHANTI,BOSOMTWE,,,,+233 24 483 4871,jachiepramsoshs@ges.gov.gh,,YES,,,,,,,,,
ST. GEORGE'S SENIOR HIGH TECH SCHOOL,,KUNTANASE,"6?32'29.5""N","1?28'46.3""W",SHS,Public,ASHANTI,BOSOMTWE,,,,054 600 5218,st.georgesshst@ges.gov.gh,,YES,,,,,,,,,
BEPOSO SENIOR HIGH SCHOOL,,BEPOSO,"6?36'09.0""N","1?34'50.6""W",SHS,Public,ASHANTI,BOSOMTWE,,,,+233 24 363 8700,bepososhs@ges.gov.gh,,YES,,,,,,,,,
OSEI ADUTWUM SENIOR HIGH SCHOOL,,JACHIE,"6?34'18.5""N","1?30'55.0""W",SHS,Public,ASHANTI,BOSOMTWE,,,,+233 24 311 2745,oseiadutwumshs@ges.gov.gh,,YES,,,,,,,,,
BOSOMTWE OYOKO COMM. SENIOR HIGH SCHOOL,,"BOSOMTWE
OYOKO","6?33'47.0""N","1?34'12.4""W",SHS,Public,ASHANTI,BOSOMTWE,,,,+233 24 963 5758,bosomtweoyokocommshs@ges.gov.gh,,NO,,,,,,,,,
CHURCH OF CHRIST SENIOR HIGH SCHOOL,,[NEAR] WOE,"6?43'17.4""N","1?25'45.5""W",SHS,Public,ASHANTI,EJISU JUABEN,,,,+233 24 481 8358,churchofchristshs@ges.gov.gh,,NO,,,,,,,,,
ST. SEBASTIAN CATH. SENIOR HIGH SCHOOL,,ADUMASA,"6?37'06.6""N","1?18'45.3""W",SHS,Public,ASHANTI,EJISU JUABEN,,,,054 318 3736,st.sebastiancathshs@ges.gov.gh,,NO,,,,,,,,,
JUABEN SENIOR HIGH SCHOOL,,JUABEN,"6?47'35.9""N","1?27'53.2""W",SHS,Public,ASHANTI,EJISU JUABEN MUNICIPAL,,,,+233 54 151 1326,juabenshs@ges.gov.gh,,YES,,,,,,,,,
BONWIRE SENIOR HIGH/TECH SCHOOL,,BONWIRE,"6?48'03.2""N","1?28'07.1""W",SHS,Public,ASHANTI,EJISU JUABEN MUNICIPAL,,,,+233 20 820 1810,bonwireshst@ges.gov.gh,,YES,,,,,,,,,
EJISUMAN SENIOR HIGH SCHOOL,,EJISU,"6?45'37.5""N","1?28'55.7""W",SHS,Public,ASHANTI,EJISU JUABEN MUNICIPAL,,,,+233 54 799 2708,ejisumanshs@ges.gov.gh,,YES,,,,,,,,,
EJISU SENIOR HIGH/TECH SCHOOL,,EJISU,"6?46'03.2""N","1?27'31.9""W",SHS,Public,ASHANTI,EJISU JUABEN MUNICIPAL,,,,054 635 4802,ejisushst@ges.gov.gh,,YES,,,,,,,,,
ACHINAKROM SENIOR HIGH SCHOOL,,ACHINAKROM,"6?40'09.2""N","1?27'59.9""W",SHS,Public,ASHANTI,EJISU JUABEN MUNICIPAL,,,,+233 24 447 7879,achinakromshs@ges.gov.gh,,YES,,,,,,,,,
ONWE SENIOR HIGH SCHOOL,,EJISU ONWE,"6?41'21.0""N","1?26'43.9""W",SHS,Public,ASHANTI,EJISU ONWE,,,,+233 20 957 7517,onweshs@ges.gov.gh,,NO,,,,,,,,,
EJURAMAN ANGLICAN SENIOR HIGH SCHOOL,,EJURA,"7?22'18.5""N","1?22'28.6""W",SHS,Public,ASHANTI,EJURA/SEKYEDUMASE,,,,+233 20 507 3934,ejuramananglicanshs@ges.gov.gh,,YES,,,,,,,,,
SEKYEDUMASE SENIOR HIGH/TECH SCHOOL,,SEKYEDUMASE,"7?18'49.4""N","1?33'21.5""W",SHS,Public,ASHANTI,EJURA/SEKYEDUMASE,,,,+233 20 878 8556,sekyedumashst@ges.gov.gh,,YES,,,,,,,,,
AKWESI AWOBAA SENIOR HIGH SCHOOL,,ANYINASU,"7?13'52.3""N","1?34'27.3""W",SHS,Public,ASHANTI,EJURA/SEKYEDUMASE,,,,+233 24 447 7585,akwesiawobaashs@ges.gov.gh,,NO,,,,,,,,,
"PENTECOST SENIOR HIGH SCHOOL, KUMASI",,"BREMAN WEST,
KUMASI","6?45'00.9""N","1?38'26.3""W",SHS,Public,ASHANTI,KUMASI METRO,,,,+233 24 405 0069,pentecostkumasishs@ges.gov.gh,,NO,,,,,,,,,
OSEI KYERETWIE SENIOR HIGH SCHOOL,,"OLD TAFO -
KUMASI","6?44'52.3""N","1?36'58.4""W",SHS,Public,ASHANTI,KUMASI METRO,,,,+233 55 384 5370,oseikyeretwieshs@ges.gov.gh,,YES,,,,,,,,,
"AL-AZARIYA ISLAMIC SENIOR HIGH SCHOOL,
KUMASI",,"OLD TAFO,
KUMASI","6?49'11.5""N","1?37'41.1""W",SHS,Public,ASHANTI,KUMASI METRO,,,,055 383 8836,al-azariyaislamicshs@ges.gov.gh,,NO,,,,,,,,,
KUMASI GIRLS SENIOR HIGH SCHOOL,,ABREPO,"6?44'11.8""N","1?39'32.7""W",SHS,Public,ASHANTI,KUMASI METRO,,,,+233 24 284 3825,kumasigirlsshs@ges.gov.gh,,YES,,,,,,,,,
"UTHMANIYA SENIOR HIGH SCHOOL, TAFO",,TAFO,"6?43'39.8""N","1?37'00.2""W",SHS,Public,ASHANTI,KUMASI METRO,,,,+233 20 825 6839,uthmaniyashs@ges.gov.gh,,NO,,,,,,,,,
KUMASI WESLEY GIRLS HIGH SCHOOL,,"OLD TAFO -
KUMASI","6?43'29.2""N","1?37'08.6""W",SHS,Public,ASHANTI,KUMASI METRO,,,,+233 24 483 6427,kumasiwesleygirlsshs@ges.gov.gh,,YES,,,,,,,,,
ASANTEMAN SENIOR HIGH SCHOOL,,BANTAMA,"6?42'50.6""N˜","1?37'39.4""W",SHS,Public,ASHANTI,KUMASI METRO,,,,+233 24 420 6959,asantemanshs@ges.gov.gh,,YES,,,,,,,,,
"ADVENTIST  SENIOR HIGH SCHOOL, KUMASI",,"BANTAMA-
KUMASI","6?42'47.8""N","1?37'54.8""W",SHS,Public,ASHANTI,KUMASI METRO,,,,+233 24 321 5472,adventistkumasishs@ges.gov.gh,,YES,,,,,,,,,
SERWAAH NYARKO GIRLS' SENIOR HIGH SCHOOL,,DICHEMSO,"6?42'53.7""N","1?36'31.8""W",SHS,Public,ASHANTI,KUMASI METRO,,,,+233 20 819 9706,serwaahnyarkogirlsshs@ges.gov.gh,,YES,,,,,,,,,
PREMPEH COLLEGE,,"SOFOLINE-
KUMASI","6?42'25.0""N","1?38'40.6""W",SHS,Public,ASHANTI,KUMASI METRO,,,,+233 20 573 6772,prempehshs@ges.gov.gh,,YES,,,,,,,,,
"NURU-AMEEN ISLAMIC SENIOR HIGH SCHOOL,
ASEWASE",,ASEWASE,"6?42'09.4""N","1?36'30.7""W",SHS,Public,ASHANTI,KUMASI METRO,,,,+233 24 423 2099,nuru-ameenislamicshs@ges.gov.gh,,NO,,,,,,,,,
TAWHEED SENIOR HIGH SCHOOL,,"KUMASI-
AKWATIA LINE","6?42'17.6""N","1?36'33.0""W",SHS,Public,ASHANTI,KUMASI METRO,,,,+233 24 362 4754,tawheedshs@ges.gov.gh,,YES,,,,,,,,,
YAA ASANTEWAA GIRLS SENIOR HIGH SCHOOL,,TANOSO-KUMASI,"6?42'08.2""N","1?41'52.0""W",SHS,Public,ASHANTI,KUMASI METRO,,,,+233 24 457 0712,yaaasantewaagirlsshs@ges.gov.gh,,YES,,,,,,,,,
PRINCE OF PEACE GIRLS,,"KWADASO
ESTATES","6?42'12.9""N","1?38'34.0""W",SHS,Public,ASHANTI,KUMASI METRO,,,,+233 24 210 1411,princeofpeacegirlsshs@ges.gov.gh,,NO,,,,,,,,,
"ST. LOUIS SENIOR HIGH SCHOOL, KUMASI",,ODUOM-KUMASI,"6?41'46.0""N","1?32'42.4""W",SHS,Public,ASHANTI,KUMASI METRO,,,,+233 32 701 0085,st.louiskumasishs@ges.gov.gh,,YES,,,,,,,,,
"ARMED FORCES SENIOR HIGH/TECH SCHOOL,
KUMASI",,"BANTAMA-
KUMASI","6?40'04.0""N","1?36'59.7""W",SHS,Public,ASHANTI,KUMASI METRO,,,,+233 24 873 2262,armedforceskumasishst@ges.gov.gh,,YES,,,,,,,,,
KUMASI TECH. INST.,,KUMASI,"6?42'00.6""N","1?36'25.6""W",TECH,Public,ASHANTI,KUMASI METRO,,,,+233 20 153 9217,kumasitechinst@ges.gov.gh,,YES,,,,,,,,,
"ANGLICAN SENIOR HIGH SCHOOL, KUMASI",,ASEM-KUMASI,"6?41'52.4""N","1?36'28.9""W",SHS,Public,ASHANTI,KUMASI METRO,,,,+233 24 948 9496,anglicankumasishs@ges.gov.gh,,YES,,,,,,,,,
KNUST SENIOR HIGH SCHOOL,,KNUST,"6?41'47.0""N˜","1?32'50.5""W",SHS,Public,ASHANTI,KUMASI METRO,,,,+233 55 788 9989,knustshs@ges.gov.gh,,YES,,,,,,,,,
"T. I. AHMADIYYA SENIOR HIGH SCHOOL, KUMASI",,"KUMASI -
STADIUM","6?41'13.3""N","1?36'25.8""W",SHS,Public,ASHANTI,KUMASI METRO,,,,+233 20 826 4955,t.i.ahmadiyyakumasishs@ges.gov.gh,,YES,,,,,,,,,
KUMASI SENIOR HIGH/TECH SCHOOL,,PATASI-KUMASI,"6?41'13.6""N","1?38'44.2""W",SHS,Public,ASHANTI,KUMASI METRO,,,,+233 32 202 9588,kumasishst@ges.gov.gh,,YES,,,,,,,,,
"AGRIC NZEMA SENIOR HIGH SCHOOL, KUMASI",,"KUMASI, AGRIC
NZEMA","6?40'27.0""N","1?40'36.8""W",SHS,Public,ASHANTI,KUMASI METRO,,,,+233 242688586,agricnzemashs@ges.gov.gh,,NO,,,,,,,,,
OPOKU WARE SENIOR HIGH SCHOOL,,SANTASI-KUMASI,"6?40'10.9""N","1?38'40.4""W",SHS,Public,ASHANTI,KUMASI METRO,,,,+233 54 558 6658,opokuwareshs@ges.gov.gh,,YES,,,,,,,,,
"ST. HUBERT SEM/SENIOR HIGH SCHOOL, KUMASI",,SANTASI-KUMASI,"6?39'56.2""N","1?38'49.4""W",SHS,Public,ASHANTI,KUMASI METRO,,,,+233 24 413 3693,st.hubertsemshs@ges.gov.gh,,YES,,,,,,,,,
KUMASI SENIOR HIGH SCHOOL,,"GYINYASE-
KUMASI","6?40'07.0""N","1?34'58.5""W",SHS,Public,ASHANTI,KUMASI METRO,,,,+233 20 672 9148,kumasishs@ges.gov.gh,,YES,,,,,,,,,
"ISLAMIC SENIOR HIGH SCHOOL, AMPABAME",,AMPABAME,"6?43'07.7""N","1?38'35.5""W",SHS,Public,ASHANTI,KUMASI METRO.,,,,+233 24 423 3157,islamicampabameshs@ges.gov.gh,,YES,,,,,,,,,
METHODIST TECHNINCAL  INSTITUTE,,KWADASO,"6?41'53.3""N","1?39'10.0""W",SHS,Public,ASHANTI,KUMASI METRO.,,,,+233 24 636 1888,methodisttechinst@ges.gov.gh,,YES,,,,,,,,,
"ADVENTIST GIRLS SENIOR HIGH SCHOOL, NTONSO",,NTONSO,"6?49'12.0""N","1?31'12.4""W",SHS,Public,ASHANTI,KWABRE EAST,,,,+233 24 498 7344,adventistgirlsshs@ges.gov.gh,,YES,,,,,,,,,
ADANWOMASE SENIOR HIGH SCHOOL,,ADANWOMASE,"6?48'58.9""N","1?28'49.7""W",SHS,Public,ASHANTI,KWABRE EAST,,,,+232 24 402 9861,adanwomaseshs@ges.gov.gh,,YES,,,,,,,,,
GYAAMA PENSAN SENIOR HIGH/TECH SCHOOL,,"ABOASO-
ASHANTI","6?48'20.4""N","1?32'11.0""W",SHS,Public,ASHANTI,KWABRE EAST,,,,+233 24 429 0823,gyaamapensanshst@ges.gov.gh,,YES,,,,,,,,,
KOFI ADJEI SENIOR HIGH/TECH SCHOOL,,BAMPENASE,"6?47'51.1""N","1?34'53.4""W",SHS,Public,ASHANTI,KWABRE EAST,,,,+233 24 365 9581,kofiadjeishst@ges.gov.gh,,YES,,,,,,,,,
SIMMS SENIOR HIGH/COM. SCHOOL,,FAWOADE,"6?47'03.6""N","1?33'59.4""W",SHS,Public,ASHANTI,KWABRE EAST,,,,055 712 3463,simmscomshs@ges.gov.gh,,YES,,,,,,,,,
ANTOA SENIOR HIGH SCHOOL,,ANTOA,"6?47'04.2""N","1?33'59.4""W",SHS,Public,ASHANTI,KWABRE EAST,,,,+233 24 498 7344,antoashs@ges.gov.gh,,YES,,,,,,,,,
OPOKU AGYEMAN SENIOR HIGH/TECH SCHOOL,,APAAH,"7?13'52.1""N","1?34'36.9""W",SHS,Public,ASHANTI,MAMPONG MUNICIPAL,,,,+233 24 457 1764,opokuagyemanshst@ges.gov.gh,,NO,,,,,,,,,
KOFIASE ADVENTIST SENIOR HIGH/TECH. SCHOOL,,KOFIASE,"7?09'15.4""N","1?29'39.9""W",SHS,Public,ASHANTI,MAMPONG MUNICIPAL,,,,+233 24 460 5183,kofiaseadventistshs.@ges.gov.gh,,YES,,,,,,,,,
AMANIAMPONG SENIOR HIGH SCHOOL,,MAMPONG,"7?04'34.6""N","1?24'01.7""W",SHS,Public,ASHANTI,MAMPONG MUNICIPAL,,,,+233 20 823 6380,amaniampongshs@ges.gov.gh,,YES,,,,,,,,,
"ST. JOSEPH SEM/SENIOR HIGH SCHOOL, MAMPONG",,MAMPONG,"7?03'47.1""N","1?23'37.9""W",SHS,Public,ASHANTI,MAMPONG MUNICIPAL,,,,024 447 6613,st.josephsemshs@ges.gov.gh,,YES,,,,,,,,,
"ST. MONICA'S SENIOR HIGH SCHOOL, MAMPONG",,MAMPONG,"7?03'09.9""N","1?24'16.2""W",SHS,Public,ASHANTI,MAMPONG MUNICIPAL,,,,+233 20 812 6838,st.monicasmampongshs@ges.gov.gh,,YES,,,,,,,,,
SPIRITAN SENIOR HIGH SCHOOL,,ADANKWAME,"6?48'14.1""N","1?43'16.6""W",SHS,Public,ASHANTI,NKAWIE,,,,024 614 3802,spiritanshs@ges.gov.gh,,NO,,,,,,,,,
"CHRIST THE KING CATH., OBUASI",,OBUASI,"6?12'32.4""N˜","1?38'00.8""W",SHS,Public,ASHANTI,OBUASI MUNICIPAL,,,,+233 20 131 1954,christthekingcathshs@ges.gov.gh,,YES,,,,,,,,,
OBUASI SENIOR HIGH/TECH SCHOOL,,OBUASI,"6?12'09.4""N","1?41'08.2""W",SHS,Public,ASHANTI,OBUASI MUNICIPAL,,,,+233 20 346 1568,obuasishst@ges.gov.gh,,YES,,,,,,,,,
"ST. JEROME SENIOR HIGH SCHOOL, ABOFOUR",,ABOFOUR,"7?08'43.0""N","1?44'34.6""W",SHS,Public,ASHANTI,OFFINSO MUNICIPAL,,,,+233 20 863 3313,st.jeromeshs@ges.gov.gh,,YES,,,,,,,,,
NAMONG SENIOR HIGH/TECH SCHOOL,,NAMONG,"6?58'42.0""N","1?40'46.6""W",SHS,Public,ASHANTI,OFFINSO MUNICIPAL,,,,+233 24 405 5866,namongshst@ges.gov.gh,,YES,,,,,,,,,
DWAMENA AKENTEN SENIOR HIGH SCHOOL,,OFFINSO,"6?57'33.2""N˜","1?40'27.1""W",SHS,Public,ASHANTI,OFFINSO MUNICIPAL,,,,+233 20 814 9136,dwamenaakentenshs@ges.gov.gh,,YES,,,,,,,,,
WIAFE AKENTEN PRESBY SENIOR HIGH SCHOOL,,AFRANCHO,"7?25'44.6""N","1?58'23.8""W",SHS,Public,ASHANTI,OFFINSO NORTH,,,,+233 24 554 8552,wiafeakentenpresbyshs@ges.gov.gh,,NO,,,,,,,,,
AKUMADAN SENIOR HIGH SCHOOL,,AKUMADAN,"7?23'39.6""N","1?56'50.8""W",SHS,Public,ASHANTI,OFFINSO NORTH,,,,+233 55 330 5025,akumadanshs@ges.gov.gh,,YES,,,,,,,,,
NKENKANSU COMMUNITY SENIOR HIGH SCHOOL,,NKENKANSU,"7?21'06.5""N","1?54'51.9""W",SHS,Public,ASHANTI,OFFINSO NORTH,,,,+233 24 476 7028,nkenkansucommshs@ges.gov.gh,,YES,,,,,,,,,
ASUOSO COMM. SENIOR HIGH SCHOOL,,ASUOSO,"7?15'31.6""N","1?48'54.2""W",SHS,Public,ASHANTI,OFFINSO NORTH,,,,+233 24 566 6306,asuosocommshs@ges.gov.gh,,NO,,,,,,,,,
NSUTAMAN CATH. SENIOR HIGH SCHOOL,,NSUTA,"7?00'54.6""N","1?23'29.5""W",SHS,Public,ASHANTI,SEKYERE CENTRAL,,,,+233 24 308 2760,nsutamancathshs@ges.gov.gh,,YES,,,,,,,,,
GHANA MUSLIM MISSION SENIOR HIGH SCHOOL,,BEPOSO,"6?59'46.6""N","1?22'07.3""W",SHS,Public,ASHANTI,SEKYERE CENTRAL,,,,+233 24 497 3688,ghanamuslimmissionshs@ges.gov.gh,,YES,,,,,,,,,
"PRESBY SENIOR HIGH/TECH SCHOOL, KWAMANG",,KWAMANG,"6?58'16.7""N","1?16'24.1""W",SHS,Public,ASHANTI,SEKYERE CENTRAL,,,,+233 24 414 9976,presbykwamangshst@ges.gov.gh,,YES,,,,,,,,,
TIJJANIYA SENIOR HIGH SCHOOL,,ASOKORE,"6?51'31.0""N","1?22'50.7""W",SHS,Public,ASHANTI,SEKYERE EAST,,,,027 446 2941,tijjaniyashs@ges.gov.gh,,YES,,,,,,,,,
"T. I. AHMADIYYA GIRL'S SENIOR HIGH SCHOOL,
ASOKORE",,ASOKORE,"6?51'10.0""N","1?23'04.4""W",SHS,Public,ASHANTI,SEKYERE EAST,,,,024 325 9858,t.i.ahmadiyyagirlsshs@ges.gov.gh,,YES,,,,,,,,,
KROBEA ASANTE TECH/VOC SCHOOL,,ASOKORE,"6?51'25.4""N","˜1?22'30.6""W",TVET,Public,ASHANTI,SEKYERE EAST,,,,+233 24 402 9845,krobeaasantetechvoc@ges.gov.gh,,YES,,,,,,,,,
EFFIDUASE SENIOR HIGH/COM SCHOOL,,EFFIDUASE,"6?50'43.1""N","1?23'22.6""W",SHS,Public,ASHANTI,SEKYERE EAST,,,,+233 24 374 5349,effiduaseshst@ges.gov.gh,,YES,,,,,,,,,
EFFIDUASE SENIOR HIGH/TECH SCHOOL,,AKYAWKROM,"6?52'42.4""N˜","1?24'12.9""W",SHS,Public,ASHANTI,SEKYERE EAST,,,,+233 24 401 7470,effiduaseshst@ges.gov.gh,,NO,,,,,,,,,
BANKOMAN SENIOR HIGH SCHOOL,,BANKO,"6?55'02.0""N","1?16'35.6""W",SHS,Public,ASHANTI,SEKYERE KUMAWU,,,,+233 244260724,bankomanshs@ges.gov.gh,,YES,,,,,,,,,
TWENEBOA KODUA SENIOR HIGH SCHOOL,,KUMAWU,"6?54'56.6""N","1?16'50.2""W",SHS,Public,ASHANTI,SEKYERE KUMAWU,,,,+233 20 627 4796,tweneboakoduashs@ges.gov.gh,,YES,,,,,,,,,
DADEASE AGRIC SENIOR HIGH SCHOOL,,DADEASE,"6?53'27.9""N","1?21'51.5""W",SHS,Public,ASHANTI,SEKYERE KUMAWU,,,,+233 24 862 2579,dadeaseagricshs@ges.gov.gh,,YES,,,,,,,,,
BODOMASE SENIOR HIGH/TECH SCHOOL,,BODOMASE,"6?53'45.8""N","1?14'49.5""W",SHS,Public,ASHANTI,SEKYERE KUMAWU,,,,+233 24 412 2667,bodomaseshst@ges.gov.gh,,NO,,,,,,,,,
OKOMFO ANOKYE SENIOR HIGH SCHOOL,,WIAMOASE,"7?03'30.7""N","1?30'37.2""W",SHS,Public,ASHANTI,SEKYERE SOUTH,,,,+233 55 936 3609,okomfoanokyeshs@ges.gov.gh,,YES,,,,,,,,,
ADU GYAMFI SENIOR HIGH SCHOOL,,JAMASI,"6?58'25.3""N","1?28'10.6""W",SHS,Public,ASHANTI,SEKYERE SOUTH,,,,+233 20 878 8556,adugyamfishs@ges.gov.gh,,YES,,,,,,,,,
"S.D.A. SENIOR HIGH SCHOOL, AGONA",,AGONA,"6?57'58.7""N","1?30'47.4""W",SHS,Public,ASHANTI,SEKYERE SOUTH,,,,024 496 2984,sdaagonashs@ges.gov.gh,,YES,,,,,,,,,
AGONA SENIOR HIGH/TECH SCHOOL,,AGONA,"6?56'16.3""N","1?29'37.1""W",SHS,Public,ASHANTI,SEKYERE SOUTH,,,,˜0302 209 6498,agonashst@ges.gov.gh,,YES,,,,,,,,,
KONADU YIADOM CATHOLIC SENIOR HIGH SCHOOL,,ASAMANG,"6?54'19.3""N","1?26'29.0""W",SHS,Public,ASHANTI,SEKYERE SOUTH,,,,+233 54 507 4632,konaduyiadomcatholicshs@ges.gov.gh,,YES,,,,,,,,,
BANDAMAN SENIOR HIGH SCHOOL,,"BANDA
AHENKRO","8?10'17.5""N","2?21'24.3""W",SHS,Public,BONO,BANDA,,,,+233 54 614 8216,bandamanshs@ges.gov.gh,,YES,,,,,,,,,
BEREKUM PRESBY SENIOR HIGH SCHOOL,,BEREKUM,"7?27'50.2""N","˜2?34'33.5""W",SHS,Public,BONO,BEREKUM-MUNICIPAL,,,,+233 208 194 506,presbyberekumshs@ges.gov.gh,,YES,,,,,,,,,
BEREKUM SENIOR HIGH SCHOOL,,BEREKUM,"7?26'21.2""N˜","˜2?34'30.2""W",SHS,Public,BONO,BEREKUM-MUNICIPAL,,,,+233 20 140 3356˜,berekumshs@ges.gov.gh,,YES,,,,,,,,,
JINIJINI SENIOR HIGH SCHOOL,,JINIJINI,"7?27'12.2""N","2?39'30.7""W",SHS,Public,BONO,BEREKUM-MUNICIPAL,,,,050 876 0858,jinijinishs@ges.gov.gh,,YES,,,,,,,,,
"ST. AUGUSTINE SENIOR HIGH SCHOOL, NSAPOR-
BEREKUM",,"NSAPOR-
BEREKUM","5?37'57.2""N","1?59'40.5""W",SHS,Public,BONO,BEREKUM-MUNICIPAL,,,,024 070 7940,st.augustineberekumshs@ges.gov.gh,,NO,,,,,,,,,
"METHODIST SENIOR HIGH/TECH SCHOOL,BIADAN",,BIADAN,"7?25'15.1""N","2?35'31.8""W",SHS,Public,BONO,BEREKUM-MUNICIPAL,,,,024 473 9868,methodistbiadanshst@ges.gov.gh,,YES,,,,,,,,,
DORMAA SENIOR HIGH SCHOOL,,"DORMAA
AHENKRO","7?16'37.5""N","2?51'40.1""W",SHS,Public,BONO,"DORMAA CENTRAL
MUNICIPAL",,,,+233 24 330 4367,dormaashs@ges.gov.gh,,YES,,,,,,,,,
"SALVATION ARMY SENIOR HIGH SCHOOL, ABOABO
DORMAA",,"ABOABO-
DORMAA","7?12'52.9""N","2?48'33.7""W",SHS,Public,BONO,"DORMAA CENTRAL
MUNICIPAL",,,,+233 24 591 1110,salvationarmydormaashs@ges.gov.gh,,YES,,,,,,,,,
MANSEN SENIOR HIGH SCHOOL,,WAMFIE,"7?17'42.9""N","2?42'11.7""W",SHS,Public,BONO,DORMAA EAST,,,,+233 24 238 5718,mansenshs@ges.gov.gh,,YES,,,,,,,,,
WAMANAFO SENIOR HIGH/TECH SCHOOL,,WAMANAFO,"7?16'33.9""N","2?42'53.9""W",SHS,Public,BONO,DORMAA EAST,,,,+233 24 324 5240,wamanafoshst@ges.gov.gh,,YES,,,,,,,,,
NKRANKWANTA COMM SENIOR HIGH SCHOOL,,NKRANKWANTA,"7?00'35.1""N","3?02'39.7""W",SHS,Public,BONO,DORMAA WEST,,,,+233 20 823 4684,nkrankwantacommshs@ges.gov.gh,,YES,,,,,,,,,
"ST. ANN'S GIRLS SENIOR HIGH SCHOOL, SAMPA",,SAMPA,"7?57'53.6""N","2?41'51.1""W",SHS,Public,BONO,JAMAN NORTH,,,,˜055 306 1070,st.annsgirlsshs@ges.gov.gh,,NO,,,,,,,,,
NAFANA SENIOR HIGH SCHOOL,,SAMPA,"7?56'45.4""N","2?41'33.1""W",SHS,Public,BONO,JAMAN NORTH,,,,027 013 2537,nafanashs@ges.gov.gh,,YES,,,,,,,,,
SUMAMAN SENIOR HIGH SCHOOL,,SUMA-AHENKRO,"7?55'23.1""N","2?42'59.4""W",SHS,Public,BONO,JAMAN NORTH,,,,+233 20 817 4233,sumamanshs@ges.gov.gh,,YES,,,,,,,,,
DIAMONO SENIOR HIGH SCHOOL,,DUADASO NO.2,"7?45'29.5""N","2?38'55.6""W",SHS,Public,BONO,JAMAN NORTH,,,,054 946 6625,diamonoshs@ges.gov.gh,,NO,,,,,,,,,
GOKA SENIOR HIGH/TECH SCHOOL,,GOKA,"7?45'29.5""N","2?38'55.6""W",SHS,Public,BONO,JAMAN NORTH,,,,˜035 219 6712,gokashst@ges.gov.gh,,YES,,,,,,,,,
DUADASO NO. 1 SENIOR HIGH/TECH SCHOOL,,DUADASO,"7?54'25.5""N","2?38'38.6""W",SHS,Public,BONO,JAMAN NORTH,,,,024 390 2838,duadasono.1shs@ges.gov.gh,,NO,,,,,,,,,
DROBO SENIOR HIGH SCHOOL,,DROBO,"7?35'37.2""N","2?47'09.0""W",SHS,Public,BONO,JAMAN SOUTH,,,,540231505,droboshs@ges.gov.gh,,YES,,,,,,,,,
OUR LADY OF PROVIDENCE SENIOR HIGH SCHOOL,,"KWASI
BUOKROM","7?35'12.2""N","2?47'23.8""W",SHS,Public,BONO,JAMAN SOUTH,,,,020 266 0329,ourladyofprovidenceshs@ges.gov.gh,,YES,,,,,,,,,
"S.D.A SENIOR HIGH SCHOOL, SUNYANI",,SUNYANI,"7?20'42.3""N","2?20'38.5""W",SHS,Public,BONO,SUNYANI MUNICIPAL,,,,209383127,sdasunyanishs@ges.gov.gh,,NO,,,,,,,,,
TWENE AMANFO SENIOR HIGH/TECH SCHOOL,,SUNYANI,"7?20'06.8""N","2?19'25.3""W",SHS,Public,BONO,SUNYANI MUNICIPAL,,,,020 280 3347,tweneamanfoshst@ges.gov.gh,,NO,,,,,,,,,
SUNYANI METHODIST TECHNICAL INST.,,SUNYANI,"7?19'54.2""N","2?20'27.8""W",SHS,Public,BONO,SUNYANI MUNICIPAL,,,,020 781 3728,sunyanimethodisttechinst@ges.gov.gh,,YES,,,,,,,,,
"ST. JAMES SEM & SENIOR HIGH SCHOOL, ABESIM",,ABESIM,"7?17'46.0""N","2?17'24.6""W",SHS,Public,BONO,SUNYANI MUNICIPAL,,,,026 661 8254,st.jamessemshs@ges.gov.gh,,YES,,,,,,,,,
SUNYANI SENIOR HIGH SCHOOL,,SUNYANI,"7?19'05.6""N","2?18'38.3""W",SHS,Public,BONO,SUNYANI MUNICIPAL,,,,˜050 871 9396,sunyanishs@ges.gov.gh,,YES,,,,,,,,,
"SACRED HEART SENIOR HIGH SCHOOL, NSOATRE",,NSOATRE,"7?24'40.6""N","2?28'36.5""W",SHS,Public,BONO,SUNYANI WEST,,,,059 626 4804,sacredheartshs@ges.gov.gh,,YES,,,,,,,,,
CHIRAA SENIOR HIGH SCHOOL,,CHIRAA,"7?23'23.4""N","2?11'15.9""W",SHS,Public,BONO,SUNYANI WEST,,,,024 331 8850,chiraashs@ges.gov.gh,,YES,,,,,,,,,
ODOMASEMAN SENIOR HIGH SCHOOL,,ODOMASE,"7?22'48.7""N","2?18'51.1""W",SHS,Public,BONO,SUNYANI WEST,,,,˜024 996 7708,odomasemanshs@ges.gov.gh,,YES,,,,,,,,,
DON BOSCO VOC./TECH. INST.,,ODUMASI,"7?22'10.0""N","2?19'09.1""W",SHS,Public,BONO,SUNYANI WEST,,,,028 910 0606,donboscotechvocinst@ges.gov.gh,,NO,,,,,,,,,
"NOTRE DAME GIRLS SENIOR HIGH SCHOOL,
SUNYANI",,SUNYANI,"7?21'37.3""N","2?21'23.3""W",SHS,Public,BONO,SUNYANI WEST,,,,˜054 389 3653,notredamegirlsshs@ges.gov.gh,,YES,,,,,,,,,
MENJI SENIOR HIGH SCHOOL,,MENJI,"7?55'25.7""N˜","2?22'35.8""W",SHS,Public,BONO,TAIN,,,,024 642 8917,menjishs@ges.gov.gh,,NO,,,,,,,,,
NSAWKAW STATE SENIOR HIGH SCHOOL,,NSAWKAW,"7?52'27.6""N˜","2?18'35.8""W",SHS,Public,BONO,TAIN,,,,˜024 622 7442,nsawkawstateshs@ges.gov.gh,,YES,,,,,,,,,
NKORANMAN SENIOR HIGH SCHOOL,,SEIKWA,"7?43'46.9""N","2?31'07.9""W",SHS,Public,BONO,TAIN,,,,˜020 847 4988,nkoranmanshs@ges.gov.gh,,YES,,,,,,,,,
BADU SENIOR HIGH/TECH SCHOOL,,BADU/WENCHI,"7?41'23.1""N","2?13'51.7""W",SHS,Public,BONO,TAIN,,,,020 823 7325,badushst@ges.gov.gh,,YES,,,,,,,,,
NKYERAA SENIOR HIGH SCHOOL,,NCHIRAA,"7?52'51.2""N","1?59'08.5""W",SHS,Public,BONO,WENCHI MUNICIPAL,,,,244118981,nkyeraashs@ges.gov.gh,,NO,,,,,,,,,
WENCHI METH. SENIOR HIGH SCHOOL,,WENCHI,"7?45'10.7""N","2?06'10.4""W",SHS,Public,BONO,WENCHI MUNICIPAL,,,,+233 54 799 2708,wenchimethshs@ges.gov.gh,,YES,,,,,,,,,
KOASE SENIOR HIGH/TECH SCHOOL,,KOASE/WENCHI,"7?40'40.6""N","2?06'25.3""W",SHS,Public,BONO,WENCHI MUNICIPAL,,,,˜055 475 3950,koaseshst@ges.gov.gh,,YES,,,,,,,,,
ISTIQUAAMA SENIOR HIGH SCHOOL,,WENCHI,"7?39'48.6""N","2?05'54.6""W",SHS,Public,BONO,WENCHI MUNICIPAL,,,,+233 20 850 4586,istiquaamashs@ges.gov.gh,,YES,,,,,,,,,
ATEBUBU SENIOR HIGH SCHOOL,,ATEBUBU,"7?44'46.0""N","0?58'15.5""W",SHS,Public,BONO EAST,ATEBUBU-AMANTIN,,,,+233 24 753 3028,atebubushs@ges.gov.gh,,YES,,,,,,,,,
NEW KROKOMPE COMM. SENIOR HIGH SCHOOL,,"NEW
KONKROMPE","7?44'42.3""N","0?58'13.1""W",SHS,Public,BONO EAST,ATEBUBU-AMANTIN,,,,+233 24 215 2364,newkrokompecommshs@ges.gov.gh,,YES,,,,,,,,,
AMANTEN SENIOR HIGH SCHOOL,,AMANTEN,"7?32'53.5""N","1?12'18.4""W",SHS,Public,BONO EAST,ATEBUBU-AMANTIN,,,,054 272 7017,amantenshs@ges.gov.gh,,YES,,,,,,,,,
"NEW LONGORO COMM SENIOR HIGH SCHOOL
(DEGA)",,NEW LONGORO,"8?08'42.6""N","2?01'41.1""W",SHS,Public,BONO EAST,KINTAMPO NORTH,,,,+233 50 309 6751,newlongorocommshs@ges.gov.gh,,NO,,,,,,,,,
KINTAMPO SENIOR HIGH SCHOOL,,KINTAMPO,"8?03'38.3""N","1?43'29.3""W",SHS,Public,BONO EAST,"KINTAMPO NORTH
MUNICIPAL",,,,+233 24 3537564,kintamposhs@ges.gov.gh,,YES,,,,,,,,,
JEMA SENIOR HIGH SCHOOL,,JEMA,"7?54'37.5""N","1?45'54.9""W",SHS,Public,BONO EAST,KINTAMPO SOUTH,,,,+233 35 202 8607,jemashs@ges.gov.gh,,YES,,,,,,,,,
NKORANZA TECH INST.,,NKORANZA,"7?33'54.3""N","1?43'05.9""W",SHS,Public,BONO EAST,NKORANZA,,,,+233 24 443 7294,nkoranzatechinst@ges.gov.gh,,YES,,,,,,,,,
OSEI BONSU SENIOR HIGH SCHOOL,,YEFRI,"7?41'33.8""N","1?44'31.7""W",SHS,Public,BONO EAST,NKORANZA NORTH,,,,+233 20 863 6191,oseibonsushs@ges.gov.gh,,YES,,,,,,,,,
BUSUNYA SENIOR HIGH SCHOOL,,BUSUNYA,"7?41'36.7""N","1?40'05.7""W",SHS,Public,BONO EAST,NKORANZA NORTH,,,,+233 24 366 8281,busunyashs@ges.gov.gh,,YES,,,,,,,,,
KWABRE SENIOR HIGH SCHOOL,,AKUMA,"7?29'19.5""N","1?42'38.2""W",SHS,Public,BONO EAST,NKORANZA SOUTH,,,,233 20 822 9195,kwabreshs@ges.gov.gh,,YES,,,,,,,,,
NKORANZA SENIOR HIGH/TECH SCHOOL,,NKORANZA,7.483416144,-1.722246288,SHS,Public,BONO EAST,NKORANZA SOUTH,,,,502221399,nkoranzashst@ges.gov.gh,,YES,,,,,,,,,
YEJI SENIOR HIGH/TECH SCHOOL,,YEJI,7.555727788,-1.713755212,SHS,Public,BONO EAST,PRU,,,,540752358,yejishst@ges.gov.gh,,YES,,,,,,,,,
PRANG SENIOR HIGH,,PRANG,8.220339023,-0.650602669,SHS,Public,BONO EAST,PRU,,,,+233 54 799 2708,prangshs@ges.gov.gh,,YES,,,,,,,,,
ABEASEMAN COMM. DAY SENIOR HIGH SCHOOL,,ABEASE,7.997951898,-0.883176285,SHS,Public,BONO EAST,PRU,,,,541315814,abeasemancommshs@ges.gov.gh,,NO,,,,,,,,,
BASSA COMMUNITY SENIOR HIGH SCHOOL,,BODINKA,7.957073603,-1.174877376,SHS,Public,BONO EAST,SENE EAST,,,,233 246977853,bassacommunityshs@ges.gov.gh,,NO,,,,,,,,,
KAJAJI SENIOR HIGH SCHOOL,,KAJAJI,"7?47'17.2""N","0?12'48.0""W",SHS,Public,BONO EAST,SENE EAST,,,,202730865,kajajishs@ges.gov.gh,,YES,,,,,,,,,
KWAME DANSO SENIOR HIGH/TECH SCHOOL,,KWAME DANSO,7.782350435,-0.212485961,SHS,Public,BONO EAST,SENE WEST,,,,248632471,kwamedansoshst@ges.gov.gh,,YES,,,,,,,,,
GYARKO COMM. DAY SENIOR HIGH SCHOOL,,TECHIMAN,7.734363832,-0.668610871,SHS,Public,BONO EAST,TECHIMAN MUNICIPAL,,,,+233 24 218 8838,gyarkocommshs@ges.gov.gh,,NO,,,,,,,,,
KESSE BASAHYIA SENIOR HIGH SCHOOL,,"TECHIMAN
OFORIKROM",7.587533797,-1.943853846,SHS,Public,BONO EAST,TECHIMAN MUNICIPAL,,,,˜0247883533,kessebasahyiashs@ges.gov.gh,,NO,,,,,,,,,
TECHIMAN SENIOR HIGH SCHOOL,,TECHIMAN,7.594843433,-1.864577161,SHS,Public,BONO EAST,TECHIMAN MUNICIPAL,,,,+233 24 643 9713,techimanshs@ges.gov.gh,,YES,,,,,,,,,
"OUR LADY OF MOUNT CARMEL GIRLS SENIOR HIGH
SCHOOL, TECHIMAN",,TECHIMAN,7.569728895,-1.937018363,SHS,Public,BONO EAST,TECHIMAN MUNICIPAL,,,,+233 24 481 6110,ourladyofmountcarmelgirlsshs@ges.gov.gh,,YES,,,,,,,,,
YEBOAH ASUAMAH SENIOR HIGH SCHOOL,,NSUTA,7.557842,-1.935861261,SHS,Public,BONO EAST,TECHIMAN MUNICIPAL,,,,+233 24 365 3287,yeboahasuamahshs@ges.gov.gh,,NO,,,,,,,,,
KWARTENG ANKOMAH SENIOR HIGH SCHOOL,,"TANOSO-
TECHMIAN",7.534504819,-2.077486203,SHS,Public,BONO EAST,TECHIMAN MUNICIPAL,,,,242188993,kwartengankomahshs@ges.gov.gh,,YES,,,,,,,,,
GUAKRO EFFAH SENIOR HIGH SCHOOL,,OFFUMAN,7.449164047,-1.9745499,SHS,Public,BONO EAST,TECHIMAN NORTH,,,,242357246,guakroeffahshs@ges.gov.gh,,NO,,,,,,,,,
"ST. FRANCIS SEMINARY/SENIOR HIGH SCHOOL,
BUOYEM",,BUOYEM,7.767129824,-2.000409961,SHS,Public,BONO EAST,TECHIMAN NORTH,,,,+233 20 906 9069,st.francisseminaryshs@ges.gov.gh,,YES,,,,,,,,,
TUOBODOM SENIOR HIGH/TECH SCHOOL,,TUOBODOM,7.665760487,-1.962198488,SHS,Public,BONO EAST,TECHIMAN NORTH,,,,+233 20 862 7025,tuobodomshst@ges.gov.gh,,YES,,,,,,,,,
AMEYAW AKUMFI SENIOR HIGH/TECH SCHOOL,,AWOROWA,7.65006454,-1.897525882,SHS,Public,BONO EAST,TECHIMAN NORTH,,,,244414038,ameyawakumfishst@ges.gov.gh,,YES,,,,,,,,,
KROBO COMM.SENIOR HIGH SCHOOL,,KROBO,7.619749942,-2.009422659,SHS,Public,BONO EAST,TECHIMAN NORTH,,,,+233 24 705 8656,krobocommshs@ges.gov.gh,,NO,,,,,,,,,
ABRAFI SENIOR HIGH SCHOOL,,TECHIMAN,7.603182461,-1.99321599,SHS,Public,BONO EAST,TANO NORTH,,,,+233 547593417,abrafishs@ges.gov.gh,,NO,,,,,,,,,
ASUANSI TECH. INST.,,ASUANSI,7.615458281,-1.964123617,TECH,Public,CENTRAL,ABURA/ASEBU/ KWAMAN,,,,244991448,asuansitechinst@ges.gov.gh,,YES,,,,,,,,,
ABURAMAN SENIOR HIGH SCHOOL,,ABURA DUNKWA,5.298675541,-1.262496019,SHS,Public,CENTRAL,"ABURA/ASEBU/
KWAMANKESE",,,,243737867,aburamanshs@ges.gov.gh,,YES,,,,,,,,,
ABAKRAMPA SENIOR HIGH/TECH SCHOOL,,ABAKRAMPA,5.338349754,-1.179624163,SHS,Public,CENTRAL,"ABURA/ASEBU/
KWAMANKESE",,,,+233 24 463 0133,abakrampashst@ges.gov.gh,,YES,,,,,,,,,
MOREE COMM. SENIOR HIGH SCHOOL,,MOREE,5.24688889,-1.231057274,SHS,Public,CENTRAL,"ABURA/ASEBU/
KWAMANKESE",,,,244845284,moreecommshs@ges.gov.gh,,NO,,,,,,,,,
AGGREY MEM. A.M.E.ZION SENIOR HIGH SCHOOL,,CAPE COAST,5.115355121,-1.245794829,SHS,Public,CENTRAL,"ABURA/ASEBU/
KWAMANKESE",,,,559672060,aggreymemamezionshs@ges.gov.gh,,YES,,,,,,,,,
NSABA PRESBY SENIOR HIGH SCHOOL,,NSABA,5.137323054,-1.22058223,SHS,Public,CENTRAL,AGONA EAST,,,,+233 20 566 6658,presbynsabashs@ges.gov.gh,,YES,,,,,,,,,
AGONA NAMONWORA COMM.SENIOR HIGH SCHOOL,,"AGONA
NAMONWORA",5.649385125,-0.749852627,SHS,Public,CENTRAL,AGONA EAST,,,,+233 24 950 2606,agonanamonworacommshs@ges.gov.gh,,NO,,,,,,,,,
KWANYAKO SENIOR HIGH SCHOOL,,KWANYAKO,5.639927557,-0.670766788,SHS,Public,CENTRAL,AGONA EAST,,,,558504719,kwanyakoshs@ges.gov.gh,,YES,,,,,,,,,
SWEDRU SENIOR HIGH SCHOOL,,SWEDRU,5.603721147,-0.634575403,SHS,Public,CENTRAL,AGONA EAST,,,,332191515,swedrushs@ges.gov.gh,,YES,,,,,,,,,
SIDDIQ SENIOR HIGH SCHOOL,,"AGONA
NYAKROM",5.541659127,-0.672429447,SHS,Public,CENTRAL,AGONA WEST MUNICIPAL,,,,+233 24 671 8911,siddiqshs@ges.gov.gh,,NO,,,,,,,,,
NYAKROM SENIOR HIGH TECH SCHOOL,,NYAKROM,5.612405763,-0.792062117,SHS,Public,CENTRAL,AGONA WEST MUNICIPAL,,,,267010267,nyakromshst@ges.gov.gh,,YES,,,,,,,,,
AGONA FANKOBAA SENIOR HIGH SCHOOL,,"AGONA
FANKOBAA",5.647366508,-0.753944588,SHS,Public,CENTRAL,AGONA WEST MUNICIPAL,,,,+233 24 387 9998,agonafankobaashs@ges.gov.gh,,NO,,,,,,,,,
SWEDRU SCH. OF BUSINESS,,SWEDRU,5.544543476,-0.836271274,SHS,Public,CENTRAL,AGONA WEST MUNICIPAL,,,,332020378,swedruschofbusiness@ges.gov.gh,,YES,,,,,,,,,
BISEASE SENIOR HIGH/COMM. SCHOOL,,BISEASE,5.528387617,-0.690099219,SHS,Public,CENTRAL,AJUMAKO/ ENYAN/ESIAM,,,,+233 24 288 8478,biseaseshscomshs@ges.gov.gh,,YES,,,,,,,,,
ENYAN DENKYIRA SENIOR HIGH SCHOOL,,DENKYIRA,5.452970602,-0.975047032,SHS,Public,CENTRAL,AJUMAKO/ ENYAN/ESIAM,,,,+233 24 713 9738,enyandenkyirashs@ges.gov.gh,,YES,,,,,,,,,
MANDO SENIOR HIGH/TECH SCHOOL,,MANDO,5.398687709,-0.983608247,SHS,Public,CENTRAL,AJUMAKO/ ENYAN/ESIAM,,,,249745677,mandoshst@ges.gov.gh,,YES,,,,,,,,,
ENYAN MAIM COMM. DAY SENIOR HIGH SCHOOL,,ENYAN MAIM,5.383120626,-0.930519461,SHS,Public,CENTRAL,AJUMAKO/ ENYAN/ESIAM,,,,+233 24 452 2626,enyanmaimcommshs@ges.gov.gh,,NO,,,,,,,,,
ENYAN-ABAASA TECHNICAL INSTITUTE,,ENYAN-ABAASA,5.313812054,-1.011017556,SHS,Public,CENTRAL,AJUMAKO/ENYAN /ESSIAM,,,,+233 24 275 8765,enyanabaasatechinst@ges.gov.gh,,YES,,,,,,,,,
BRAKWA SENIOR HIGH/TECH SCHOOL,,BRAKWA,5.362910943,-0.944193203,SHS,Public,CENTRAL,"ASIKUMA/ODOBEN/
BRAKWA",,,,+233 20 393 2334,brakwashst@ges.gov.gh,,YES,,,,,,,,,
ODOBEN SENIOR HIGH SCHOOL,,ODOBEN,5.702904214,-0.982153532,SHS,Public,CENTRAL,"ASIKUMA/ODOBEN/
BRAKWA",,,,249427833,odobenshs@ges.gov.gh,,YES,,,,,,,,,
BREMAN ASIKUMA SENIOR HIGH SCHOOL,,"BREMAN
ASIKUMA",5.640807426,-0.886042588,SHS,Public,CENTRAL,"ASIKUMA/ODOBEN/
BRAKWA",,,,201363691,bremanasikumashs@ges.gov.gh,,YES,,,,,,,,,
ASSIN NORTH SENIOR HIGH/TECH SCHOOL,,"ASSIN
ASEMPANEYE",5.592724007,-0.995923717,SHS,Public,CENTRAL,ASSIN NORTH MUNICIPAL,,,,243242337,assinnorthshst@ges.gov.gh,,YES,,,,,,,,,
ASSIN STATE COLLEGE,,ASSIN BEREKU,5.920281613,-1.358674619,SHS,Public,CENTRAL,ASSIN NORTH MUNICIPAL,,,,208829743,assinstateshs@ges.gov.gh,,YES,,,,,,,,,
GYAASE COMMUNITY SENIOR HIGH SCHOOL,,"ASSIN-
AKONFUDI",5.871789974,-1.343063061,SHS,Public,CENTRAL,ASSIN NORTH MUNICIPAL,,,,+233 24 475 4154,gyaasecommunityshs@ges.gov.gh,,NO,,,,,,,,,
OBIRI YEBOAH SENIOR HIGH/TECHNICAL SCHOOL,,ASSIN FOSU,5.821044867,-1.305289146,SHS,Public,CENTRAL,ASSIN NORTH MUNICIPAL,,,,554324028,obiriyeboahshst@ges.gov.gh,,YES,,,,,,,,,
ASSIN NSUTA SENIOR HIGH SCHOOL,,ASSIN NSUTA,5.708675713,-1.285730647,SHS,Public,CENTRAL,ASSIN SOUTH,,,,+233 24 498 2312,assinnsutaagricshs@ges.gov.gh,,YES,,,,,,,,,
ASSIN MANSO SENIOR HIGH SCHOOL,,ASSIN MANSO,5.616476949,-1.223945623,SHS,Public,CENTRAL,ASSIN SOUTH,,,,+233 24 452 2626,assinmansoshs@ges.gov.gh,,YES,,,,,,,,,
ADANKWAMAN SENIOR HIGH SCHOOL,,ASSIN DARMANG,5.524673202,-1.174604246,SHS,Public,CENTRAL,ASSIN SOUTH,,,,541385880,adankwamanshs@ges.gov.gh,,YES,,,,,,,,,
NYANKUMASE AHENKRO SENIOR HIGH SCHOOL,,"NYANKUMASE
AHENKRO",5.454826481,-1.161670573,SHS,Public,CENTRAL,ASSIN SOUTH,,,,+233 4294270,nyankumaseahenkroshs@ges.gov.gh,,YES,,,,,,,,,
BONTRASE SENIOR HIGH TECH. SCHOOL,,JEI KRODUA,5.378525447,-1.145291649,TECH,Public,CENTRAL,AWUTU SENYA,,,,+233 24 599 9381,bontraseshst@ges.gov.gh,,NO,,,,,,,,,
AWUTU BAWJIASE COMM SENIOR HIGH SCHOOL,,BAWJIASE,5.602603086,-0.555348653,SHS,Public,CENTRAL,AWUTU/SENYA,,,,244412263,awutubawjiasecommshs@ges.gov.gh,,NO,,,,,,,,,
OBRACHIRE SENIOR HIGH/TECH SCHOOL,,OBRAKYERE,5.693678366,-0.557065088,SHS,Public,CENTRAL,AWUTU/SENYA,,,,599513131,obrachireshst@ges.gov.gh,,YES,,,,,,,,,
ODUPONG COMM. DAY SCHOOL,,"ODUPONG-
KASOA",5.654793409,-0.581309788,SHS,Public,CENTRAL,AWUTU/SENYA,,,,024 375 6450,odupongcommshs@ges.gov.gh,,NO,,,,,,,,,
AWUTU WINTON SENIOR HIGH SCHOOL,,AWUTU,5.600564848,-0.472776603,SHS,Public,CENTRAL,AWUTU/SENYA,,,,+233 24 472 1353,awutuwintonshs@ges.gov.gh,,NO,,,,,,,,,
SENYA SENIOR HIGH SCHOOL,,SENYA,5.509456219,-0.52423143,SHS,Public,CENTRAL,AWUTU/SENYA,,,,545108117,senyashs@ges.gov.gh,,YES,,,,,,,,,
CAPE COAST TECH. INST.,,CAPE COAST,5.410750298,-0.505502846,TECH,Public,CENTRAL,CAPE COAST,,,,332092170,capecoasttechinst@ges.gov.gh,,YES,,,,,,,,,
EFFUTU SENIOR HIGH/TECH SCHOOL,,CAPE COAST,5.129566885,-1.277693432,SHS,Public,CENTRAL,CAPE COAST METRO,,,,248842716,effutushst@ges.gov.gh,,YES,,,,,,,,,
"ACADEMY OF CHRIST THE KING, CAPE COAST",,CAPE COAST,5.204495673,-1.323535719,SHS,Public,CENTRAL,CAPE COAST METRO,,,,+233 24 288 8892,academyofchristthekingshs@ges.gov.gh,,NO,,,,,,,,,
"WESLEY GIRLS SENIOR HIGH SCHOOL, CAPE COAST",,CAPE COAST,5.144379916,-1.267164123,SHS,Public,CENTRAL,CAPE COAST METRO,,,,502288449,wesleygirlscapecoastshs@ges.gov.gh,,YES,,,,,,,,,
GHANA NATIONAL COLLEGE,,CAPE COAST,5.131713027,-1.279485132,SHS,Public,CENTRAL,CAPE COAST METRO,,,,553646952,ghananationalshs@ges.gov.gh,,YES,,,,,,,,,
UNIVERSITY PRACTICE SENIOR HIGH SCHOOL,,CAPE COAST,5.130088755,-1.227176417,SHS,Public,CENTRAL,CAPE COAST METRO,,,,552537260,universitypracticeshs@ges.gov.gh,,YES,,,,,,,,,
"HOLY CHILD SCHOOL, CAPE COAST",,CAPE COAST,5.131734399,-1.279528047,SHS,Public,CENTRAL,CAPE COAST METRO,,,,332132733,holychildsch@ges.gov.gh,,YES,,,,,,,,,
ADISADEL COLLEGE,,CAPE COAST,5.121568686,-1.233671974,SHS,Public,CENTRAL,CAPE COAST METRO,,,,332132543,adisadelshs@ges.gov.gh,,YES,,,,,,,,,
OGUAA SENIOR HIGH/TECH SCHOOL,,CAPE COAST,5.121148844,-1.264743661,SHS,Public,CENTRAL,CAPE COAST METRO,,,,332133047,oguaashst@ges.gov.gh,,YES,,,,,,,,,
MFANTSIPIM SCHOOL,,CAPE COAST,5.120951791,-1.22431349,SHS,Public,CENTRAL,CAPE COAST METRO,,,,244748992,mfantsipimshs@ges.gov.gh,,YES,,,,,,,,,
"ST. AUGUSTINE'S COLLEGE, CAPE COAST",,CAPE COAST,5.115720404,-1.24985579,SHS,Public,CENTRAL,CAPE COAST METRO,,,,332132733,st.augustinesshs@ges.gov.gh,,YES,,,,,,,,,
WINNEBA SENIOR HIGH SCHOOL,,WINNEBA,5.102829646,-1.263434438,SHS,Public,CENTRAL,EFFUTU MUNICIPAL,,,,+233 20 812 9851,winnebashs@ges.gov.gh,,YES,,,,,,,,,
EKUMFI T. I. AHMADIIYYA SENIOR HIGH SCHOOL,,ESAKYIR,5.357823204,-0.636388195,SHS,Public,CENTRAL,EKUMFI,,,,+233 24 446 9671,ekumfittiahmadiyyashs@ges.gov.gh,,YES,,,,,,,,,
J.E.A. MILLS SENIOR HIGH SCHOOL,,OTUAM,5.329688233,-0.905264959,SHS,Public,CENTRAL,EKUMFI,,,,244854602,jeamillsshs@ges.gov.gh,,NO,,,,,,,,,
AKYIN SENIOR HIGH SCHOOL,,MBROBOTO,5.256915538,-0.830809632,SHS,Public,CENTRAL,EKUMFI CENTRAL,,,,244706061,akyinshs@ges.gov.gh,,NO,,,,,,,,,
OGYEEDOM COMM SENIOR HIGH/TECH SCHOOL,,GOMOA AFRANSI,5.207815172,-0.893744559,SHS,Public,CENTRAL,GOMOA CENTRAL,,,,208149348,ogyeedomcommshst@ges.gov.gh,,NO,,,,,,,,,
ST. GREGORY CATHOLIC SENIOR HIGH SCHOOL,,BUDUBURAM,5.518997809,-0.745084133,SHS,Public,CENTRAL,GOMOA EAST,,,,541583360,stgregorycatholicshs@ges.gov.gh,,NO,,,,,,,,,
GOMOA GYAMAN SENIOR HIGH SCHOOL,,GOMOA GYAMAN,5.695393912,-0.456525992,SHS,Public,CENTRAL,GOMOA EAST,,,,+233 24 464 3691,gomoagyamanshs@ges.gov.gh,,NO,,,,,,,,,
POTSIN T.I. AHM. SENIOR HIGH SCHOOL,,POTSIN,5.501228943,-0.76178929,SHS,Public,CENTRAL,GOMOA EAST,,,,559451964,potsintiahmadiyyashs@ges.gov.gh,,YES,,,,,,,,,
FETTEHMAN SENIOR HIGH SCHOOL,,GOMOA FETTEH,5.455764161,-0.590819561,SHS,Public,CENTRAL,GOMOA EAST,,,,557922440,fettehmanshs@ges.gov.gh,,NO,,,,,,,,,
"COLLEGE OF MUSIC SENIOR HIGH SCHOOL,
MOZANO",,MOZANO,5.43530073,-0.489925563,SHS,Public,CENTRAL,GOMOA WEST,,,,+233 20 261 9477,collegeofmusicshs@ges.gov.gh,,YES,,,,,,,,,
MOZANO SENIOR HIGH SCHOOL,,MOZANO,5.435634827,-0.715199801,SHS,Public,CENTRAL,GOMOA WEST,,,,+233 24 474 5978,mozanoshs@ges.gov.gh,,YES,,,,,,,,,
GOMOA SENIOR HIGH/TECH SCHOOL,,DAWURAMPON,5.509600003,-0.855697175,SHS,Public,CENTRAL,GOMOA WEST,,,,553019506,gomoashst@ges.gov.gh,,YES,,,,,,,,,
APAM SENIOR HIGH SCHOOL,,APAM,5.435249786,-0.788112117,SHS,Public,CENTRAL,GOMOA WEST,,,,551452934,apamshs@ges.gov.gh,,YES,,,,,,,,,
EGUAFO-ABREM SENIOR HIGH SCHOOL,,EGUAFO ABIREM,5.521375773,-0.418772405,SHS,Public,CENTRAL,"KOMENDA/EDINA/EGUAFO/A
BIREM MUNICIPAL",,,,+233 24 330 6285,eguafoabremshs@ges.gov.gh,,YES,,,,,,,,,
EDINAMAN SENIOR HIGH SCHOOL,,ELMINA,5.176772568,-1.418085746,SHS,Public,CENTRAL,"KOMENDA/EDINA/EGUAFO/A
BIREM MUNICIPAL",,,,+233 24 476 6087,edinamanshs@ges.gov.gh,,YES,,,,,,,,,
KOMENDA SENIOR HIGH/TECH SCHOOL,,KOMENDA,5.084909869,-1.372195532,SHS,Public,CENTRAL,"KOMENDA/EDINA/EGUAFO/A
BIREM MUNICIPAL",,,,332191932,komendashst@ges.gov.gh,,YES,,,,,,,,,
ABEADZE STATE COLLEGE,,"ABEADZE
DOMEABRA",5.050869801,-1.506356844,SHS,Public,CENTRAL,MFANTSIMAN MUNICIPAL,,,,+233 55 656 5091,abeadzestateshs@ges.gov.gh,,YES,,,,,,,,,
MANKESSIM SENIOR HIGH/TECH SCHOOL,,MANKESIM,5.144176619,-1.27859089,SHS,Public,CENTRAL,MFANTSIMAN MUNICIPAL,,,,502288449,mankessimshst@ges.gov.gh,,YES,,,,,,,,,
MFANTSIMAN GIRLS SENIOR HIGH SCHOOL,,SALTPOND,5.280152729,-1.025472888,SHS,Public,CENTRAL,MFANTSIMAN MUNICIPAL,,,,556241100,mfantsimangirlsshs@ges.gov.gh,,YES,,,,,,,,,
"METHODIST HIGH SCHOOL,SALTPOND",,SALTPOND,5.222979861,-1.042464546,SHS,Public,CENTRAL,MFANTSIMAN MUNICIPAL,,,,243154914,methodisthighsaltpondshs@ges.gov.gh,,YES,,,,,,,,,
KWEGYIR AGGREY SENIOR HIGH SCHOOL,,ANOMABO,5.203567796,-1.058543561,SHS,Public,CENTRAL,MFANTSIMAN MUNICIPAL,,,,244764488,kwegyiraggreyshs@ges.gov.gh,,YES,,,,,,,,,
TWIFO PRASO SENIOR HIGH SCHOOL,,TWIFO PRASO,5.177632327,-1.124385361,SHS,Public,CENTRAL,TWIFO ATI-MORKWA,,,,552016060,twifoprasoshs@ges.gov.gh,,YES,,,,,,,,,
TWIFO HEMANG SENIOR HIGH/TECH SCHOOL,,HEMAN,5.617146206,-1.578333547,SHS,Public,CENTRAL,"TWIFO HEMANG LOWER
DENKYIRA",,,,+233 24 659 2664,twifohemangshst@ges.gov.gh,,YES,,,,,,,,,
JUKWA SENIOR HIGH SCHOOL,,JUKWA,5.495418507,-1.535973074,SHS,Public,CENTRAL,"TWIFO HEMANG LOWER
DENKYIRA",,,,033 2133827,jukwashs@ges.gov.gh,,YES,,,,,,,,,
MOKWAA SENIOR HIGH SCHOOL,,NAMOO,5.248587124,-1.34217886,SHS,Public,CENTRAL,TWIFU ATTI-MOKWAA,,,,+233 24 451 2698,mokwaashs@ges.gov.gh,,NO,,,,,,,,,
DUNKWA SENIOR HIGH/TECH SCHOOL,,"DUNKWA-ON-
OFFIN",5.713936767,-1.604877159,SHS,Public,CENTRAL,"UPPER DENKYIRA EAST
MUNICIPAL",,,,243341032,dunkwaseshst@ges.gov.gh,,YES,,,,,,,,,
BOA-AMPONSEM SENIOR HIGH SCHOOL,,"DUNKWA-ON-
OFFIN",5.958254039,-1.786548046,SHS,Public,CENTRAL,"UPPER DENKYIRA EAST
MUNICIPAL",,,,553939587,boa-amponsemshs@ges.gov.gh,,YES,,,,,,,,,
DIASO SENIOR HIGH SCHOOL,,DIASO,5.963066509,-1.7920198,SHS,Public,CENTRAL,UPPER DENKYIRA WEST,,,,509652746,diasoshs@ges.gov.gh,,YES,,,,,,,,,
AYANFURI SENIOR HIGH SCHOOL,,AYANFURI,6.158424802,-2.150332303,SHS,Public,CENTRAL,UPPER DENKYIRA WEST,,,,+233 20 777 7006,ayanfurishs@ges.gov.gh,,NO,,,,,,,,,
DONKORKROM AGRIC SENIOR HIGH SCHOOL,,DONKORKROM,5.964221382,-1.893308961,SHS,Public,EASTERN,"AFRAM PLAINS (KWAHU
NORTH)",,,,+233 24 352 2733,donkorkromagricshs@ges.gov.gh,,YES,,,,,,,,,
MEM-CHEMFRE COMM. SENIOR HIGH SCHOOL,,MEM-CHEMFRE,7.043964935,-0.097739274,SHS,Public,EASTERN,"AFRAM PLAINS (KWAHU
NORTH)",,,,024 362 2617,memchemfrecommshs@ges.gov.gh,,NO,,,,,,,,,
MAAME KROBO COMM. SENIOR HIGH SCHOOL,,MAAME KROBO,6.939650248,-0.025925917,SHS,Public,EASTERN,"AFRAM PLAINS (KWAHU
SOUTH)",,,,024 370 1030,maamekrobocommshs@ges.gov.gh,,NO,,,,,,,,,
ST. FIDELIS SENIOR HIGH/TECH SCHOOL,,TEASE,7.082134441,-0.086794225,SHS,Public,EASTERN,"AFRAM PLAINS (KWAHU
SOUTH)",,,,248777075,stfidelisshst@ges.gov.gh,,YES,,,,,,,,,
J.G. KNOL VOC. TECH. INST.,,ADUKROM AKW.,6.935112904,-0.258220361,TECH,Public,EASTERN,AKUAPEM NORTH,,,,243412694,jgknoltechvocinst@ges.gov.gh,,YES,,,,,,,,,
NIFA SENIOR HIGH SCHOOL,,ADUKROM,6.027128286,-0.081348047,SHS,Public,EASTERN,AKWAPIM NORTH,,,,+233 24 451 9819,nifashs@ges.gov.gh,,YES,,,,,,,,,
"PRESBY SENIOR HIGH/TECH SCHOOL, ADUKROM",,ADUKROM,6.028547049,-0.077518055,SHS,Public,EASTERN,AKWAPIM NORTH,,,,265055511,presbyadukromshst@ges.gov.gh,,YES,,,,,,,,,
H'MOUNT SINAI SENIOR HIGH SCHOOL,,AKROPONG,6.015341849,-0.074386074,SHS,Public,EASTERN,AKWAPIM NORTH,,,,244101010,hmountsinaishs@ges.gov.gh,,YES,,,,,,,,,
OKUAPEMAN SENIOR HIGH SCHOOL,,AKROPONG,5.964078953,-0.089928988,SHS,Public,EASTERN,AKWAPIM NORTH,,,,540932894,okuapemanshs@ges.gov.gh,,YES,,,,,,,,,
MANGOASE SENIOR HIGH SCHOOL,,MANGOASE,5.959422142,-0.094941134,SHS,Public,EASTERN,AKWAPIM NORTH,,,,245248937,mangoaseshs@ges.gov.gh,,YES,,,,,,,,,
BENKUM SENIOR HIGH SCHOOL,,"LARTEH-
AKWAPIM",5.943462019,-0.296873592,SHS,Public,EASTERN,AKWAPIM NORTH,,,,552345891,benkumshs@ges.gov.gh,,YES,,,,,,,,,
"METHODIST GIRLS SENIOR HIGH SCHOOL, MAMFE",,MAMFE,5.942487548,-0.089884661,SHS,Public,EASTERN,AKWAPIM NORTH,,,,+233 20 661 1245,methodistgirlsmamfeshs@ges.gov.gh,,YES,,,,,,,,,
"PRESBY  SENIOR HIGH/TECH SCHOOL, LARTEH",,"LARTEH-
KUBEASE",5.941728306,-0.119686674,SHS,Public,EASTERN,AKWAPIM NORTH,,,,303966633,presbylartehshs@ges.gov.gh,,YES,,,,,,,,,
"MAMPONG/AKW SENIOR HIGH/TECH SCHOOL FOR
THE DEAF",,MAMPONG,5.93489205,-0.072070117,SHS,Public,EASTERN,AKWAPIM NORTH,,,,024 311 5461,mampongakwshstforthedeaf@ges.gov.gh,,YES,,,,,,,,,
"PRESBY SENIOR HIGH SCHOOL, MAMPONG
AKWAPIM",,"MAMPONG-
AKWAPIM",5.90972712,-0.14450633,SHS,Public,EASTERN,AKWAPIM NORTH,,,,024 476 1356,presbymampongakwshs@ges.gov.gh,,YES,,,,,,,,,
"PRESBY SENIOR HIGH/TECH SCHOOL, ABURI",,ABURI,5.906610907,-0.145107145,SHS,Public,EASTERN,AKWAPIM SOUTH,,,,342822013,presbytaburishs@ges.gov.gh,,YES,,,,,,,,,
ADONTEN SENIOR HIGH SCHOOL,,ABURI,5.860103524,-0.17193728,SHS,Public,EASTERN,AKWAPIM SOUTH,,,,548635858,adontenshs@ges.gov.gh,,YES,,,,,,,,,
ABURI GIRLS SENIOR HIGH SCHOOL,,ABURI,5.841200458,-0.187653376,SHS,Public,EASTERN,AKWAPIM SOUTH,,,,556384254,aburigirlsshs@ges.gov.gh,,YES,,,,,,,,,
DIASPORA GIRLS' SENIOR HIGH SCHOOL,,"OBODAN-
NSAWAM",5.837131874,-0.179015588,SHS,Public,EASTERN,AKWAPIM SOUTH,,,,244131199,diasporagirlsshs@ges.gov.gh,,YES,,,,,,,,,
AKOKOASO SENIOR HIGH/TECH SCHOOL,,AKIM AKOKOASO,5.81828162,-0.264026588,SHS,Public,EASTERN,AKYEMANSA,,,,244798698,akokoasoshs@ges.gov.gh,,YES,,,,,,,,,
AYIREBI SENIOR HIGH SCHOOL,,AYIREBI,6.150271137,-1.055061659,SHS,Public,EASTERN,AKYEMANSA,,,,+233 54 320 0365,ayirebishs@ges.gov.gh,,YES,,,,,,,,,
BOSO SENIOR HIGH TECHNICAL SCHOOL,,BOSO,6.094115523,-1.135677301,SHS,Public,EASTERN,ASUOGYAMAN,,,,+233 24 659 0803,bososhst@ges.gov.gh,,YES,,,,,,,,,
ANUM PRESBY SENIOR HIGH SCHOOL,,ANUM,6.546147009,0.171165585,SHS,Public,EASTERN,ASUOGYAMAN,,,,249762291,presbyanumshs@ges.gov.gh,,YES,,,,,,,,,
ADJENA SENIOR HIGH/TECH SCHOOL,,ADJENA,6.3654116,0.037341554,SHS,Public,EASTERN,ASUOGYAMAN,,,,553163648,adjenashst@ges.gov.gh,,YES,,,,,,,,,
APEGUSO SENIOR HIGH SCHOOL,,APEGUSO,6.365172373,0.058420539,SHS,Public,EASTERN,ASUOGYAMAN,,,,+233 24 424 8447,apegusoshs@ges.gov.gh,,YES,,,,,,,,,
AKWAMUMAN SENIOR HIGH SCHOOL,,"ATIMPOKU-
AKOSOMBO",6.317353951,0.160596526,SHS,Public,EASTERN,ASUOGYAMAN,,,,261408811,akwamumanshs@ges.gov.gh,,YES,,,,,,,,,
"S.D.A. SENIOR HIGHSCHOOL, AKIM SEKYERE",,AKIM SEKYERE,6.249962527,0.083365668,SHS,Public,EASTERN,ATIWA,,,,244790195,sdasksakimsekyereshs@ges.gov.gh,,YES,,,,,,,,,
KWABENG ANGLICAN SENIOR HIGH/TECH SCHOOL,,KWABENG,6.922025809,-1.375271261,SHS,Public,EASTERN,ATIWA,,,,244800137,kwabenganglicanshst@ges.gov.gh,,YES,,,,,,,,,
ANUM APAPAM COMM. DAY SENIOR HIGH SCHOOL,,ANUM APAPAM,6.317113169,-0.590345101,SHS,Public,EASTERN,AYENSUANO,,,,243181299,anumapapamcommshs@ges.gov.gh,,NO,,,,,,,,,
"KRABOA-COALTAR PRESBY SENIOR HIGH SCHOOL
HIGH/TECH.",,"KRABOA-
COALTAR",6.007509253,-0.530470588,SHS,Public,EASTERN,AYENSUANO,,,,024 451 8837,presbykraboacoaltarshst@ges.gov.gh,,YES,,,,,,,,,
ODA SENIOR HIGH SCHOOL,,AKIM ODA,5.90551829,-0.467177417,SHS,Public,EASTERN,BIRIM CENTRAL MUNICIPAL,,,,244858236,odashs@ges.gov.gh,,YES,,,,,,,,,
"ST. FRANCIS SENIOR HIGH/TECH SCHOOL, AKIM
ODA",,AKIM ODA,5.968778604,-0.992289376,SHS,Public,EASTERN,BIRIM CENTRAL MUNICIPAL,,,,244531181,stfrancisshst@ges.gov.gh,,YES,,,,,,,,,
ATTAFUAH SENIOR HIGH/TECH SCHOOL,,AKIM ODA,5.932869709,-0.990407934,SHS,Public,EASTERN,BIRIM CENTRAL MUNICIPAL,,,,559048637,attafuahshst@ges.gov.gh,,YES,,,,,,,,,
ATWEAMAN SENIOR HIGH SCHOOL,,AKIM MANSO,5.916885486,-0.993610074,SHS,Public,EASTERN,BIRIM CENTRAL MUNICIPAL,,,,+233 24 977 8689,atweamanshs@ges.gov.gh,,YES,,,,,,,,,
AKROSO SENIOR HIGH/TECH SCHOOL,,AKROSO,"5?46'13.2""N","0?45'43.3""W",SHS,Public,EASTERN,BIRIM CENTRAL MUNICIPAL,,,,+233 24 271 4335,akrososhst@ges.gov.gh,,YES,,,,,,,,,
AMOANA PRASO SENIOR HIGH SCHOOL,,AMOANA PRASO,5.763812266,-0.762471759,SHS,Public,EASTERN,BIRIM NORTH,,,,245042008,amoanaprasoshs@ges.gov.gh,,NO,,,,,,,,,
"ST. MICHAEL'S SENIOR HIGH SCHOOL, AKOASE
(NKAWKAW)",,"AKOASE,
NKAWKAW",6.514650165,-0.977241888,SHS,Public,EASTERN,BIRIM NORTH,,,,+233 24 258 9542,st.michaelsakoaseshs@ges.gov.gh,,NO,,,,,,,,,
NEW ABIREM/AFOSU SENIOR HIGH SCHOOL,,NEW ABIREM,6.466592086,-0.897821232,SHS,Public,EASTERN,BIRIM NORTH,,,,055 237 5908,newabiremafosushs@ges.gov.gh,,YES,,,,,,,,,
AKIM SWEDRU SENIOR HIGH SCHOOL,,AKIM SWEDRU,6.34915661,-0.997631367,SHS,Public,EASTERN,BIRIM SOUTH,,,,+233 54 584 6387,akimswedrushs@ges.gov.gh,,YES,,,,,,,,,
ACHIASE SENIOR HIGH SCHOOL,,ACHIASE,5.890748873,-1.024555561,SHS,Public,EASTERN,BIRIM SOUTH,,,,+233 24 669 2322,achiaseshs@ges.gov.gh,,YES,,,,,,,,,
APERADE SENIOR  HIGH/TECH SCHOOL,,AKIM APERADE,5.811066791,-1.005957146,SHS,Public,EASTERN,BIRIM SOUTH,,,,578002365,aperadeshst@ges.gov.gh,,NO,,,,,,,,,
AKWATIA TECH. INST.,,AKWATIA,5.789664597,-1.097883174,TECH,Public,EASTERN,DENKYEMBOUR,,,,248683943,akwatiatechinst@ges.gov.gh,,YES,,,,,,,,,
"ST. ROSE'S SENIOR HIGH SCHOOL, AKWATIA",,AKWATIA,6.030365841,-0.805834001,SHS,Public,EASTERN,DENKYEMBOUR,,,,209889966,strosesshs@ges.gov.gh,,YES,,,,,,,,,
TARKROSI COMM. SENIOR HIGH SCHOOL,,TARKROSI,6.038557259,-0.814651973,SHS,Public,EASTERN,DENKYEMBOUR,,,,024 485 8236,tarkrosicommshs@ges.gov.gh,,NO,,,,,,,,,
"SALVATION ARMY SENIOR HIGH SCHOOL, AKIM
WENCHI",,AKIM WENCHI,"5?59'53.6""N","0?55'43.9""W",SHS,Public,EASTERN,DENKYEMBOUR,,,,˜024 307 3518,salvationarmywenchishs@ges.gov.gh,,YES,,,,,,,,,
ST. PAUL'S TECH. SCHOOL,,KUKURANTUMI,5.997568998,-0.929027547,TECH,Public,EASTERN,EAST AKIM,,,,+233 55 675 4672,st.paulstechshs@ges.gov.gh,,YES,,,,,,,,,
"W.B.M. ZION SENIOR HIGH SCHOOL, OLD TAFO",,OLD TAFO,6.19388532,-0.371151561,SHS,Public,EASTERN,EAST AKIM MUNICIPAL,,,,209023646,wbmzionshs@ges.gov.gh,,YES,,,,,,,,,
"ST. STEPHEN'S PRESBY SENIOR HIGH/TECH
SCHOOL, ASIAKWA",,ASIAKWA,6.236452937,-0.39307909,SHS,Public,EASTERN,EAST AKIM MUNICIPAL,,,,279152931,ststephenspresbyshst@ges.gov.gh,,YES,,,,,,,,,
"SAVIOUR SENIOR HIGH SCHOOL, OSIEM",,OSIEM,6.269293277,-0.50074959,SHS,Public,EASTERN,EAST AKIM MUNICIPAL,,,,+233 24 341 2811,saviourshs@ges.gov.gh,,YES,,,,,,,,,
OFORI PANIN SENIOR HIGH SCHOOL,,KUKURANTUMI,6.249151058,-0.428017673,SHS,Public,EASTERN,EAST AKIM MUNICIPAL,,,,204280113,oforipaninshs@ges.gov.gh,,YES,,,,,,,,,
AKIM ASAFO SENIOR HIGH SCHOOL,,AKIM ASAFO,6.216393308,-0.37073123,SHS,Public,EASTERN,EAST AKIM MUNICIPAL,,,,277344571,akimasafoshs@ges.gov.gh,,YES,,,,,,,,,
ABUAKWA STATE COLLEGE,,KIBI,6.17606656,-0.469649432,SHS,Public,EASTERN,EAST AKIM MUNICIPAL,,,,555248965,abuakwastateshs@ges.gov.gh,,YES,,,,,,,,,
KIBI SENIOR HIGH/TECH SCHOOL,,KIBI,6.17582886,-0.544163476,SHS,Public,EASTERN,EAST AKIM MUNICIPAL,,,,+233 24 482 6517,kibishst@ges.gov.gh,,YES,,,,,,,,,
APEDWA PRESBY SENIOR HIGH SCHOOL,,APEDWA,6.159330801,-0.556467732,SHS,Public,EASTERN,EAST AKIM MUNICIPAL,,,,+233 24 362 0327,presbyshsapedwa@ges.gov.gh,,NO,,,,,,,,,
"PRESBY SENIOR HIGH SCHOOL, BEGORO",,BEGORO,6.12634045,-0.495614915,SHS,Public,EASTERN,FANTEAKWA,,,,244682512,presbybegoroshs@ges.gov.gh,,YES,,,,,,,,,
OSINO PRESBY SENIOR HIGH/TECH SCHOOL,,OSINO,6.368329185,-0.362552232,SHS,Public,EASTERN,FANTEAKWA,,,,024 082 6242,osinopresbyshst@ges.gov.gh,,YES,,,,,,,,,
NEW NSUTAM SENIOR HIGH/TECH SCHOOL,,NEW NSUTAM,6.297970398,-0.474869332,SHS,Public,EASTERN,FANTEAKWA,,,,024 341 5974,newnsutamshst@ges.gov.gh,,YES,,,,,,,,,
ASUOM SENIOR HIGH SCHOOL,,ASUOM,6.27329484,-0.876029221,SHS,Public,EASTERN,KWAEBIBIREM,,,,578131816,asuomshs@ges.gov.gh,,YES,,,,,,,,,
KADE SENIOR HIGH/TECH SCHOOL,,KADE,6.094079342,-0.834140946,SHS,Public,EASTERN,KWAEBIBIREM,,,,+233 26 427 6444,kadeshst@ges.gov.gh,,YES,,,,,,,,,
AMANKWAKROM FISHERIES AGRIC. TECH. INST.,,AMANKWAKROM,7.172576598,0.096383013,TECH,Public,EASTERN,"KWAHU AFRAM PLAINS
NORTH",,,,+233 34 229 2470,amankwakromfisheriesagrictechinst@ges.gov.g,,NO,,,,,,,,,
ST. MARY'S VOC./TECH. INST.,,ADIEMBRA,7.062117597,-0.057599792,SHS,Public,EASTERN,"KWAHU AFRAM PLAINS
NORTH",,,,208160645,stmarytechvocinst@ges.gov.gh,,YES,,,,,,,,,
"ST. DOMINIC'S SENIOR HIGH/TECH SCHOOL,
PEPEASE",,PEPEASE,6.692635821,-0.737580277,SHS,Public,EASTERN,KWAHU EAST,,,,˜0208765647,stdominicsshs@ges.gov.gh,,YES,,,,,,,,,
ABETIFI TECH. INST.,,ABETIFI,6.670640644,-0.755572231,TECH,Public,EASTERN,KWAHU EAST,,,,+233 59 156 0513,abetifitechinst@ges.gov.gh,,YES,,,,,,,,,
ABETIFI PRESBY SENIOR HIGH SCHOOL,,ABETIFI,6.672748924,-0.737988319,SHS,Public,EASTERN,KWAHU EAST,,,,+233 24 465 7474,abetifipresbyshs@ges.gov.gh,,YES,,,,,,,,,
KWAHU TAFO SENIOR HIGH SCHOOL,,KWAHU TAFO,6.654848905,-0.664719761,SHS,Public,EASTERN,KWAHU EAST,,,,+233 24 285 0387,kwahutafoshs@ges.gov.gh,,YES,,,,,,,,,
NKWATIA PRESBY SENIOR HIGH/COMM SCHOOL,,NKWATIA,6.632944419,-0.744457704,SHS,Public,EASTERN,KWAHU EAST,,,,+233 24 386 3984,presbynkwatiacomshs@ges.gov.gh,,YES,,,,,,,,,
"ST. PETER'S SENIOR HIGH SCHOOL, NKWATIA",,NKWATIA,6.625668439,-0.72946575,SHS,Public,EASTERN,KWAHU EAST,,,,248814310,stpetersshs@ges.gov.gh,,YES,,,,,,,,,
"ST. PAUL'S SENIOR HIGH SCHOOL, ASAKRAKA
KWAHU",,"ASAKRAKA-
KWAHU",6.629651537,-0.700643404,SHS,Public,EASTERN,KWAHU SOUTH,,,,507696119,stpaulskwahushs@ges.gov.gh,,YES,,,,,,,,,
BEPONG SENIOR HIGH SCHOOL,,BEPONG,6.608706349,-0.710263731,SHS,Public,EASTERN,KWAHU SOUTH,,,,246945755,bepongshs@ges.gov.gh,,YES,,,,,,,,,
MPRAESO SENIOR HIGH SCHOOL,,MPRAESO,6.601718711,-0.73915505,SHS,Public,EASTERN,KWAHU SOUTH,,,,342099867,mpraesoshs@ges.gov.gh,,YES,,,,,,,,,
KWAHU RIDGE SENIOR HIGH SCHOOL,,OBO-KWAHU,6.599880123,-0.777592862,SHS,Public,EASTERN,KWAHU SOUTH,,,,+233 27 781 7115,kwahuridgeshs@ges.gov.gh,,YES,,,,,,,,,
ST. JOSEPH'S TECH. INST.,,KWAHU-TAFO,6.654995052,-0.669398827,TECH,Public,EASTERN,KWAHU SOUTH,,,,276221376,stjosephstechinstkwahu@ges.gov.gh,,YES,,,,,,,,,
FODOA COMM. SENIOR HIGH SCHOOL,,"FODOA
NKAWKAW",6.595451668,-0.89150105,SHS,Public,EASTERN,KWAHU WEST MUNICIPAL,,,,024 254 9289,fodoacommshs@ges.gov.gh,,NO,,,,,,,,,
NKAWKAW SENIOR HIGH SCHOOL,,NKAWKAW,6.538514013,-0.758841719,SHS,Public,EASTERN,KWAHU WEST MUNICIPAL,,,,343122204,nkawkawshs@ges.gov.gh,,YES,,,,,,,,,
MANYA KROBO SENIOR HIGH SCHOOL,,NEW NUASO,5.591645918,-0.249744631,SHS,Public,EASTERN,LOWER MANYA KROBO,,,,342091372,manyakroboshs@ges.gov.gh,,YES,,,,,,,,,
AKRO SENIOR HIGH/TECH SCHOOL,,ODUMASE,5.808732938,-0.072755227,SHS,Public,EASTERN,LOWER MANYA KROBO,,,,024 410 4579,akroshst@ges.gov.gh,,YES,,,,,,,,,
KROBO GIRLS SENIOR HIGH SCHOOL,,ODUMASE,6.134268179,-0.004100692,SHS,Public,EASTERN,LOWER MANYA KROBO,,,,233159211,krobogirlsshs@ges.gov.gh,,YES,,,,,,,,,
AKUSE METHODIST SENIOR HIGH/TECH SCHOOL,,AKUSE,6.096567736,0.126358227,SHS,Public,EASTERN,LOWER MANYA KROBO,,,,559888856,akusemethodistshst@ges.gov.gh,,YES,,,,,,,,,
KOFORIDUA TECH. INST.,,KOFORIDUA,6.112898138,-0.285048031,TECH,Public,EASTERN,NEW JUABEN,,,,9064274257,koforiduatechinst@ges.gov.gh,,YES,,,,,,,,,
"PENTECOST SENIOR HIGH SCHOOL,KOFORIDUA",,KOFORIDUA,6.090211081,-0.285540619,SHS,Public,EASTERN,NEW JUABEN,,,,342094657,pentecostkoforiduashs@ges.gov.gh,,YES,,,,,,,,,
OYOKO METHODIST  SENIOR HIGH SCHOOL,,OYOKO,6.143683443,-0.287759192,SHS,Public,EASTERN,NEW JUABEN MUNICIPAL,,,,261408811,oyokomethodistshs@ges.gov.gh,,YES,,,,,,,,,
"S.D.A SENIOR HIGH SCHOOL, KOFORIDUA",,"ASOKORE-
KOFORIDUA",6.115598758,-0.278220831,SHS,Public,EASTERN,NEW JUABEN MUNICIPAL,,,,548562340,sdakoforiduashs@ges.gov.gh,,YES,,,,,,,,,
"GHANA SENIOR HIGH SCHOOL, KOFORIDUA",,KOFORIDUA,6.110684253,-0.264317619,SHS,Public,EASTERN,NEW JUABEN MUNICIPAL,,,,203709095,ghanashskoforidua@ges.gov.gh,,YES,,,,,,,,,
OTI BOATENG SENIOR HIGH SCHOOL,,ADA/KOFORIDUA,6.105553955,-0.248097477,SHS,Public,EASTERN,NEW JUABEN MUNICIPAL,,,,+233 24 438 1775,otiboatengshs@ges.gov.gh,,YES,,,,,,,,,
"POPE JOHN SENIOR HIGH & MIN. SEM. SCHOOL,
KOFORIDUA",,KOFORIDUA,6.103687368,-0.269320561,SHS,Public,EASTERN,NEW JUABEN MUNICIPAL,,,,243158858,popejohnshs@ges.gov.gh,,YES,,,,,,,,,
KOFORIDUA SENIOR HIGH/TECH SCHOOL,,KOFORIDUA,6.15657307,-0.302755373,SHS,Public,EASTERN,NEW JUABEN MUNICIPAL,,,,342022450,koforiduashst@ges.gov.gh,,YES,,,,,,,,,
NEW JUABEN SENIOR HIGH/COMM SCHOOL,,KOFORIDUA,6.070033288,-0.265204875,SHS,Public,EASTERN,NEW JUABEN MUNICIPAL,,,,342024410,newjuabencomshs@ges.gov.gh,,YES,,,,,,,,,
"ST. MARTIN'S SENIOR HIGH SCHOOL, NSAWAM",,NSAWAM,5.826461705,-0.363203277,SHS,Public,EASTERN,NSAWAM ADOAGYIRI,,,,591167098,stmartinsshs@ges.gov.gh,,YES,,,,,,,,,
NSAWAM SENIOR HIGH SCHOOL,,NSAWAM,5.806635507,-0.354107896,SHS,Public,EASTERN,NSAWAM ADOAGYIRI,,,,024 411 4222,nsawamshs@ges.gov.gh,,NO,,,,,,,,,
"PRESBY SENIOR HIGH SCHOOL, SUHUM",,SUHUM,6.040956512,-0.45394339,SHS,Public,EASTERN,SUHUM MUNICIPAL,,,,548399657,presbysuhumshs@ges.gov.gh,,YES,,,,,,,,,
SUHUM SENIOR HIGH/TECH SCHOOL,,SUHUM,6.035607238,-0.453163646,SHS,Public,EASTERN,SUHUM MUNICIPAL,,,,+233 24 403 9218,suhumshst@ges.gov.gh,,YES,,,,,,,,,
"ISLAMIC GIRLS SENIOR HIGH SCHOOL,SUHUM",,KORASE-SUHUM,6.016506042,-0.442589077,SHS,Public,EASTERN,SUHUM MUNICIPAL,,,,+233 24 415 7477,islamicgirlsshs@ges.gov.gh,,YES,,,,,,,,,
ASESEWA SENIOR HIGH SCHOOL,,ASESEWA,6.401036482,-0.147191548,SHS,Public,EASTERN,UPPER MANYA KROBO,,,,208199470,asesewashs@ges.gov.gh,,YES,,,,,,,,,
ADEISO PRESBY SENIOR HIGH SCHOOL,,ADEISO,5.796803075,-0.483829519,SHS,Public,EASTERN,UPPER WEST AKIM,,,,+233 20 775 9796,presbyadeisoshs@ges.gov.gh,,YES,,,,,,,,,
KWAOBAAH NYANOA COMM. SENIOR HIGH SCHOOL,,NYANOA,5.785324142,-0.595713573,SHS,Public,EASTERN,UPPER WEST AKIM,,,,024 475 804,kwaobaahnyanoacommshs@ges.gov.gh,,NO,,,,,,,,,
ASAMANKESE SENIOR HIGH SCHOOL,,ASAMANKESE,5.873527481,-0.675405734,SHS,Public,EASTERN,WEST AKIM MUNICIPAL,,,,244837426,asamankeseshs@ges.gov.gh,,YES,,,,,,,,,
ST. THOMAS SENIOR HIGH/TECH SCHOOL,,ASAMANKESE,5.844317465,-0.649120573,SHS,Public,EASTERN,WEST AKIM MUNICIPAL,,,,245643212,stthomasshs@ges.gov.gh,,YES,,,,,,,,,
KLO-AGOGO SENIOR HIGH SCHOOL,,KLO-AGOGO,6.249119248,-0.226497507,SHS,Public,EASTERN,YILO KROBO,,,,243137970,kloagogoshs@ges.gov.gh,,NO,,,,,,,,,
YILO KROBO SENIOR HIGH/COMM SCHOOL,,SOMANYA,6.117655733,-0.030303273,SHS,Public,EASTERN,YILO KROBO,,,,055 927 2615,yilokroboshscomm@ges.gov.gh,,YES,,,,,,,,,
KANESHIE SENIOR HIGH/TECH SCHOOL,,KANESHIE,5.566116265,-0.243374034,SHS,Public,"GREATER
ACCRA","ABLEKUMA CENTRAL
MUNICIPAL",,,,200648567,kaneshieshst@ges.gov.gh,,NO,,,,,,,,,
WESLEY GRAMMAR SENIOR HIGH SCHOOL,,DANSOMAN,5.570295729,-0.260399575,SHS,Public,"GREATER
ACCRA","ABLEKUMA NORTH
MUNICPAL",,,,302301040,wesleygrammarshs@ges.gov.gh,,YES,,,,,,,,,
ST. MARGARET MARY SENIOR HIGH/TECH SCHOOL,,DANSOMAN,5.560454755,-0.269545577,SHS,Public,"GREATER
ACCRA","ABLEKUMA WEST
MUNICIPAL",,,,556384254,stmargaretmaryshst@ges.gov.gh,,NO,,,,,,,,,
EBENEZER SENIOR HIGH SCHOOL,,DANSOMAN,5.530154653,-0.270774973,SHS,Public,"GREATER
ACCRA","ABLEKUMA WEST
MUNICIPAL",,,,302986227,ebenezershs@ges.gov.gh,,NO,,,,,,,,,
ACCRA ACADEMY,,KANESHIE,5.571736759,-0.243774288,SHS,Public,"GREATER
ACCRA",ACCRA METRO,,,,302221721,accraacademyshs@ges.gov.gh,,YES,,,,,,,,,
ACCRA WESLEY GIRLS SENIOR HIGH SCHOOL,,KANESHIE,5.568084296,-0.230428502,SHS,Public,"GREATER
ACCRA",ACCRA METRO,,,,261141418,accrawesleygirlshs@ges.gov.gh,,NO,,,,,,,,,
HOLY TRINITY SENIOR HIGH SCHOOL,,"HIGH STREET-
ACCRA",5.54180345,-0.20596675,SHS,Public,"GREATER
ACCRA",ACCRA METRO,,,,270742862,holytrinityshs@ges.gov.gh,,NO,,,,,,,,,
"ST. MARY'S SENIOR HIGH SCHOOL, KORLE GONNO",,KORLE GONNO,5.536067108,-0.223351338,SHS,Public,"GREATER
ACCRA",ACCRA METRO,,,,302663042,stmarysshs@ges.gov.gh,,YES,,,,,,,,,
SACRED HEART TECH. INST.,,JAMES TOWN,5.535746487,-0.214041646,TECH,Public,"GREATER
ACCRA",ACCRA METRO,,,,278898042,sacredhearttechinst@ges.gov.gh,,NO,,,,,,,,,
ADA TECH. INST.,,ADA,5.622135937,-0.244274144,TECH,Public,"GREATER
ACCRA",ADA EAST DISTRICT,,,,207259322,adatechinst@ges.gov.gh,,NO,,,,,,,,,
ADA SENIOR HIGH SCHOOL,,ADA-FOAH,5.802363306,0.614539723,SHS,Public,"GREATER
ACCRA",ADA EAST DISTRICT,,,,241319248,adashs@ges.gov.gh,,YES,,,,,,,,,
ADA SENIOR HIGH/TECH SCHOOL,,SEGE,5.87623328,0.365583096,SHS,Public,"GREATER
ACCRA",ADA WEST DISTRICT,,,,302940375,adashst@ges.gov.gh,,YES,,,,,,,,,
FRAFRAHA COMM. SENIOR HIGH SCHOOL,,FRAFRAHA,5.716988634,-0.160540277,SHS,Public,"GREATER
ACCRA",ADENTAN MUNICIPAL,,,,542917255,frafrahacomshs@ges.gov.gh,,NO,,,,,,,,,
ASHIAMAN SENIOR HIGH SCHOOL,,ASHIAMAN,5.69657902,-0.018519677,SHS,Public,"GREATER
ACCRA",ASHIAMAN MUNICIPAL,,,,248608736,ashiamanshs@ges.gov.gh,,NO,,,,,,,,,
ASHIAMAN TECH/VOC. INST.,,ASHIAMAN,5.718632629,-0.047508161,TVET,Public,"GREATER
ACCRA",ASHIAMAN MUNICIPAL,,,,559592615,ashiamantechvocinst@ges.gov.gh,,NO,,,,,,,,,
ACCRA TECH. TRG. CENTRE,,KOKOMLEMLE,5.574195549,-0.209045561,TECH,Public,"GREATER
ACCRA","AYAWASO CENTRAL
MUNICIPAL",,,,502288449,accratechtrgcentre@ges.gov.gh,,NO,,,,,,,,,
ACCRA GIRLS SENIOR HIGH SCHOOL,,MAMOBI,5.59723966,-0.192989561,SHS,Public,"GREATER
ACCRA","AYAWASO NORTH
MUNICIPAL",,,,244502350,accragirlsshs@ges.gov.gh,,YES,,,,,,,,,
ODORGONNO SENIOR HIGH SCHOOL,,AWOSHIE,5.592902095,-0.283806134,SHS,Public,"GREATER
ACCRA",GA CENTRAL MUNICIPAL,,,,+233 20 825 8529,odorgonnoshs@ges.gov.gh,,YES,,,,,,,,,
KWABENYA COMM. SENIOR HIGH SCHOOL,,KWABENYA,5.667074976,-0.236650973,SHS,Public,"GREATER
ACCRA",GA EAST MUNICIPAL,,,,245952924,kwabenyacommshs@ges.gov.gh,,NO,,,,,,,,,
ST. JOHN'S GRAMMAR SENIOR HIGH SCHOOL,,ACHIMOTA,5.638871657,-0.245147361,SHS,Public,"GREATER
ACCRA",GA NORTH MUNICIPAL,,,,549176965,stjohnsgrammarshs@ges.gov.gh,,YES,,,,,,,,,
CHRISTIAN METHODIST SENIOR HIGH SCHOOL,,APLAKU (WEIJA),5.54472374,-0.331910361,SHS,Public,"GREATER
ACCRA",GA SOUTH MUNICIPAL,,,,244743202,christianmethodistshs@ges.gov.gh,,NO,,,,,,,,,
NGLESHIE AMANFRO SENIOR HIGH SCHOOL,,"NGLESHIE
AMANFRO",5.544806383,-0.407320273,SHS,Public,"GREATER
ACCRA",GA SOUTH MUNICIPAL,,,,024 474 3202,ngleshieamanfroshs@ges.gov.gh,,NO,,,,,,,,,
ADJEN KOTOKU SENIOR HIGH SCHOOL,,ADJEN KOTOKU,5.736733824,-0.361760177,SHS,Public,"GREATER
ACCRA",GA WEST MUNICIPAL,,,,560152049,adjenkotokushs@ges.gov.gh,,NO,,,,,,,,,
AMASAMAN SENIOR HIGH/TECH SCHOOL,,AMASAMAN,5.691192771,-0.292675248,SHS,Public,"GREATER
ACCRA",GA WEST MUNICIPAL,,,,302224737,amasamanshst@ges.gov.gh,,NO,,,,,,,,,
ACCRA SENIOR HIGH SCHOOL,,ASYLUM DOWN,5.570124468,-0.199231151,SHS,Public,"GREATER
ACCRA","KORLEY KLOTTEY
MUNICIPAL",,,,502288449,accrashs@ges.gov.gh,,NO,,,,,,,,,
"PRESBY SENIOR HIGH SCHOOL, OSU",,OSU,5.555711792,-0.185352132,SHS,Public,"GREATER
ACCRA","KORLEY KLOTTEY
MUNICIPAL",,,,303425632,presbyshsosu@ges.gov.gh,,NO,,,,,,,,,
KINBU SENIOR HIGH/TECH SCHOOL,,TUDU - ACCRA,5.551327388,-0.204525575,SHS,Public,"GREATER
ACCRA","KORLEY KLOTTEY
MUNICIPAL",,,,+233 30 266 3904,kinbushst@ges.gov.gh,,NO,,,,,,,,,
KPONE COMM. SENIOR HIGH SCHOOL,,KATAMANSO,5.717566107,0.043675754,SHS,Public,"GREATER
ACCRA","KPONE KATAMANSO
MUNICIPAL",,,,208177270,kponecommshs@ges.gov.gh,,NO,,,,,,,,,
O'REILLY SENIOR HIGH SCHOOL,,OKPOI GOMME,5.627039724,-0.11639579,SHS,Public,"GREATER
ACCRA",KROWOR MUNICIPAL,,,,302712033,oreillyshs@ges.gov.gh,,YES,,,,,,,,,
NUNGUA SENIOR HIGH SCHOOL,,NUNGUA,5.60303668,-0.079286119,SHS,Public,"GREATER
ACCRA",KROWOR MUNICIPAL,,,,302781618,nunguashs@ges.gov.gh,,YES,,,,,,,,,
"FORCES SENIOR HIGH/TECH SCHOOL, BURMA CAMP",,BURMA CAMP,5.593626006,-0.15873449,SHS,Public,"GREATER
ACCRA","LA DADE-KOTOPON
MUNICIPAL",,,,302776801,forcesshs@ges.gov.gh,,YES,,,,,,,,,
"ST. THOMAS AQUINAS SENIOR HIGH SCHOOL,
CANTOMENTS",,CANTONMENTS,5.573570171,-0.178002423,SHS,Public,"GREATER
ACCRA","LA DADE-KOTOPON
MUNICIPAL",,,,270996549,stthomasaquinasshs@ges.gov.gh,,NO,,,,,,,,,
LABONE SENIOR HIGH SCHOOL,,LABONE,5.564773388,-0.171116229,SHS,Public,"GREATER
ACCRA","LA DADE-KOTOPON
MUNICIPAL",,,,307288778,laboneshs@ges.gov.gh,,YES,,,,,,,,,
LA PRESBY SENIOR HIGH SCHOOL,,LA EMMAUS,5.562147832,-0.160764004,SHS,Public,"GREATER
ACCRA","LA DADE-KOTOPON
MUNICIPAL",,,,203609106,presbylashs@ges.gov.gh,,NO,,,,,,,,,
WEST AFRICA SENIOR HIGH SCHOOL,,ADENTA,5.705968509,-0.173685061,SHS,Public,"GREATER
ACCRA","LA NKWANTANANG MADINA
MUNICIPAL",,,,302500945,westafricashs@ges.gov.gh,,NO,,,,,,,,,
"PRESBY BOYS SENIOR HIGH SCHOOL, LEGON",,LEGON,5.662895555,-0.176398277,SHS,Public,"GREATER
ACCRA","LA NKWANTANANG MADINA
MUNICIPAL",,,,+23324 325 4847,presbyboyslegonshs@ges.gov.gh,,YES,,,,,,,,,
"PRESBY SENIOR HIGH SCHOOL, TESHIE",,TESHIE,5.575690619,-0.107006906,SHS,Public,"GREATER
ACCRA",LEDZOKUKU MUNICIPAL,,,,558295234,presbyteshieshs@ges.gov.gh,,NO,,,,,,,,,
TESHIE TECH. INSTITTUTE,,TESHIE,5.574029483,-0.112069334,TECH,Public,"GREATER
ACCRA",LEDZOKUKU MUNICIPAL,,,,242918737,teshietechinst@ges.gov.gh,,NO,,,,,,,,,
PRAMPRAM SENIOR HIGH SCHOOL,,PRAMPRAM,5.744712195,0.107522379,SHS,Public,"GREATER
ACCRA","NINGO PRAMPRAM
DISTRICT",,,,244462052,prampramshs@ges.gov.gh,,YES,,,,,,,,,
NINGO SENIOR HIGH SCHOOL,,OLD NINGO,5.749927964,0.15638848,SHS,Public,"GREATER
ACCRA","NINGO PRAMPRAM
DISTRICT",,,,22366767050,ningoshs@ges.gov.gh,,YES,,,,,,,,,
ACHIMOTA SENIOR HIGH SCHOOL,,ACHIMOTA,5.628554863,-0.212915578,SHS,Public,"GREATER
ACCRA",OKAIKOI NORTH MUNICIPAL,,,,+233 24 476 9163,achimotashs@ges.gov.gh,,YES,,,,,,,,,
OSUDOKU SENIOR HIGH/TECH SCHOOL,,ASUTSUARE,6.07660093,0.195774796,SHS,Public,"GREATER
ACCRA",SHAI-OSUDOKU DISTRICT,,,,247016143,osudokushst@ges.gov.gh,,YES,,,,,,,,,
GHANATA SENIOR HIGH SCHOOL,,DODOWA,5.889290296,-0.099447661,SHS,Public,"GREATER
ACCRA",SHAI-OSUDOKU DISTRICT,,,,241215846,ghanatashs@ges.gov.gh,,YES,,,,,,,,,
TEMA METH. DAY SENIOR HIGH SCHOOL,,TEMA COMM II,5.66601503,-0.021366765,SHS,Public,"GREATER
ACCRA",TEMA METRO,,,,242844785,temamethdayshs@ges.gov.gh,,NO,,,,,,,,,
TEMA TECH. INST.,,TEMA,5.665683285,-0.004158784,TECH,Public,"GREATER
ACCRA",TEMA METRO,,,,303302846,tematechinst@ges.gov.gh,,NO,,,,,,,,,
"PRESBY SENIOR HIGH SCHOOL, TEMA",,TEMA,5.663338637,-0.030580117,SHS,Public,"GREATER
ACCRA",TEMA METRO,,,,209574063,presbyshstema@ges.gov.gh,,NO,,,,,,,,,
TEMA MANHEAN SENIOR HIGH/TECH SCHOOL,,"TEMA NEW
TOWN",5.661831344,0.026748354,SHS,Public,"GREATER
ACCRA",TEMA METRO,,,,303206903,temamanheanshst@ges.gov.gh,,NO,,,,,,,,,
CHEMU SENIOR HIGH/TECH SCHOOL,,TEMA COMM 4,5.658893116,-0.008736059,SHS,Public,"GREATER
ACCRA",TEMA METRO,,,,+233 20 840 8722,chemushst@ges.gov.gh,,NO,,,,,,,,,
OUR LADY OF MERCY SENIOR HIGH SCHOOL,,TEMA COMM 4,5.650583927,-0.008705192,SHS,Public,"GREATER
ACCRA",TEMA METRO,,,,249831265,ourladyofmercyshs@ges.gov.gh,,NO,,,,,,,,,
TEMA SENIOR HIGH SCHOOL,,TEMA COMM 5,5.655385943,0.025249796,SHS,Public,"GREATER
ACCRA",TEMA WEST MUNICIPAL,,,,+233 55 631 9163,temashs@ges.gov.gh,,YES,,,,,,,,,
LASHIBI COMMUNITY SENIOR HIGH SCHOOL,,"LASHIBI-
SAKUMONO",5.633472359,-0.059180946,SHS,Public,"GREATER
ACCRA",TEMA WEST MUNICIPAL,,,,024 398 8529,lashibicommunityshs@ges.gov.gh,,NO,,,,,,,,,
NAKPANDURI SENIOR HIGH SCHOOL,,NAKPANDURI,10.63196376,-0.181739244,SHS,Public,NORTH EAST,BUNKRUPGU-YUNGUO,,,,241522213,nakpandurishs@ges.gov.gh,,YES,,,,,,,,,
BUNKPURUGU SENIOR HIGH/TECH SCHOOL,,BUNKUPURUGU,10.52267431,0.086554083,SHS,Public,NORTH EAST,BUNKRUPGU-YUNGUO,,,,249295022,bunkpurugushst@ges.gov.gh,,YES,,,,,,,,,
CHEREPONI SENIOR HIGH/TECH SCHOOL,,CHEREPONI,10.13804384,0.290810168,SHS,Public,NORTH EAST,CHEREPONI,,,,205831322,chereponishst@ges.gov.gh,,YES,,,,,,,,,
GAMBAGA GIRLS SENIOR HIGH SCHOOL,,GAMBAGA,10.52708955,-0.445298288,SHS,Public,NORTH EAST,EAST MAMPRUSI,,,,242951247,gambagagirlsshs@ges.gov.gh,,YES,,,,,,,,,
NALERIGU SENIOR HIGH SCHOOL,,NALERIGU,10.52204206,-0.388017561,SHS,Public,NORTH EAST,EAST MAMPRUSI,,,,037 2026688,nalerigushs@ges.gov.gh,,YES,,,,,,,,,
SAKOGU SENIOR HIGH/TECH SCHOOL,,SAKOGU,10.58389865,-0.264242075,SHS,Public,NORTH EAST,EAST MAMPRUSI,,,,241633443,sakogushst@ges.gov.gh,,NO,,,,,,,,,
YAGABA SENIOR HIGH SCHOOL,,YAGABA,10.39625589,-0.863589011,SHS,Public,NORTH EAST,MAMPRUGU MOADURI,,,,57 097 6222,yagabashs@ges.gov.gh,,YES,,,,,,,,,
WULUGU SENIOR HIGH SCHOOL,,WULUGU,10.46758805,-0.792431746,SHS,Public,NORTH EAST,WEST MAMPRUSI,,,,205174644,wulugushs@ges.gov.gh,,YES,,,,,,,,,
WALEWALE SENIOR HIGH SCHOOL,,WALEWELE,10.34494904,-0.808357962,SHS,Public,NORTH EAST,WEST MAMPRUSI,,,,205595735,walewaleshs@ges.gov.gh,,YES,,,,,,,,,
JANGA SENIOR HIGH/TECH SCHOOL,,"MUNICIPAL
ASSEMBLY",10.3446768,-0.808442832,SHS,Public,NORTH EAST,"WEST MAMPRUSI
MUNICIPAL",,,,242951247,jangashts@ges.gov.gh,,YES,,,,,,,,,
WALEWALETECH/ VOC INST.,,WALEWALE,10.36775833,-0.794462961,SHS,Public,NORTH EAST,WEST MAMPUSI,,,,208286437,walewaletechvocinst@ges.gov.gh,,NO,,,,,,,,,
LANGBINSI SENIOR HIGH TECHNICAL SCHOOL,,LANGBINSI,10.41643567,-0.553805366,SHS,Public,"NORTH EAST
REGION",EAST MAMPRUSI MUNICIPAL,,,,209198700,langbinsishst@ges.gov.gh,,NO,,,,,,,,,
GUSHEGU SENIOR HIGH SCHOOL,,GUSHEGU,9.907801269,-0.213443619,SHS,Public,NORTHERN,GUSHEGU,,,,024 584 7514,gushegushs@ges.gov.gh,,YES,,,,,,,,,
KARAGA SENIOR HIGH SCHOOL,,KARAGA,9.926894125,-0.433601657,SHS,Public,NORTHERN,KARAGA,,,,024 662 1888,karagashs@ges.gov.gh,,YES,,,,,,,,,
KPANDAI SENIOR HIGH SCHOOL,,KPANDAI,8.471061394,-0.011720268,SHS,Public,NORTHERN,KPANDI,,,,024 311 3834 / 020 834 6074,kpandaishs@ges.gov.gh,,YES,,,,,,,,,
KUMBUNGU SENIOR HIGH SCHOOL,,KUMBUNGU,9.552982955,-0.946418161,SHS,Public,NORTHERN,KUMBUNGU,,,,024 207 2554 / 020 653 6152,kumbungushs@ges.gov.gh,,YES,,,,,,,,,
SANG COMM. DAY SCHOOL,,SANG,9.423479015,-0.253715401,SHS,Public,NORTHERN,MION,,,,024 256 9184,sangcommdayshs@ges.gov.gh,,NO,,,,,,,,,
BIMBILLA SENIOR HIGH SCHOOL,,BIMBILLA,8.86312571,0.052565981,SHS,Public,NORTHERN,NANUMBA NORTH,,,,242721179,bimbillashs@ges.gov.gh,,YES,,,,,,,,,
WULENSI SENIOR HIGH SCHOOL,,WULENSI,8.64461064,-0.000165559,SHS,Public,NORTHERN,NANUMBA SOUTH,,,,˜024 479 3353,wulensishs@ges.gov.gh,,YES,,,,,,,,,
WAPULI COMM. SENIOR HIGH SCHOOL,,WAPULI,9.738777652,0.101550154,SHS,Public,NORTHERN,SABOBA,,,,024 495 3221,wapulicommshs@ges.gov.gh,,NO,,,,,,,,,
SABOBA E.P. SENIOR HIGH SCHOOL,,SABOBA,9.722959761,0.309625868,SHS,Public,NORTHERN,SABOBA,,,,024 647 2928,sabobaepshs@ges.gov.gh,,YES,,,,,,,,,
ST. JOSEPH'S TECH. INST.,,SABOBA,6.772032515,-0.680599865,TECH,Public,NORTHERN,SABOBA,,,,027 622 1376,stjosephstechinstkwahu@ges.gov.gh,,YES,,,,,,,,,
"ISLAMIC SCIENCE SENIOR HIGH SCHOOL, TAMALE",,TAMALE,9.460374403,-0.833977088,SHS,Public,NORTHERN,SAGNERIGU,,,,˜024 482 6753,islamicscienceshs@ges.gov.gh,,YES,,,,,,,,,
NORTHERN SCHOOL OF BUSINESS,,TAMALE,9.439121981,-0.850498117,SHS,Public,NORTHERN,SAGNERIGU,,,,037 202 2932,northernschoolofbusiness@ges.gov.gh,,YES,,,,,,,,,
TAMALE TECHNICAL INSTITUTE,,TAMALE,9.430184941,-0.866597334,SHS,Public,NORTHERN,SAGNERIGU,,,,024 230 70648,tamaletechinst@ges.gov.gh,,YES,,,,,,,,,
TAMALE SENIOR HIGH SCHOOL,,TAMALE,9.419479377,-0.867694603,SHS,Public,NORTHERN,SAGNERIGU,,,,249943868,tamaleshs@ges.gov.gh,,YES,,,,,,,,,
KALPOHIN SENIOR HIGH SCHOOL,,TAMALE,9.416146653,-0.829551263,SHS,Public,NORTHERN,SAGNERIGU,,,,+233 37 202 2491,kalpohinshs@ges.gov.gh,,YES,,,,,,,,,
PONG-TAMALE SENIOR HIGH SCHOOL,,PONG-TAMALE,9.682866199,-0.827616301,SHS,Public,NORTHERN,SAVELUGU-NANTON,,,,037 2091101,pongtamaleshs@ges.gov.gh,,YES,,,,,,,,,
SAVELUGU SENIOR HIGH SCHOOL,,SAVELUGU,9.635555043,-0.828401947,SHS,Public,NORTHERN,SAVELUGU-NANTON,,,,020 977 7031,savelugushs@ges.gov.gh,,YES,,,,,,,,,
"BUSINESS SENIOR HIGH SCHOOL, TAMALE",,TAMALE,9.403254362,-0.87879898,SHS,Public,NORTHERN,TAMALE METRO,,,,020 452 8853,businessshs@ges.gov.gh,,YES,,,,,,,,,
"GHANA SENIOR HIGH SCHOOL, TAMALE",,TAMALE,9.426108325,-0.843929448,SHS,Public,NORTHERN,TAMALE METRO,,,,+233 54 799 2708,ghanatamaleshs@ges.gov.gh,,YES,,,,,,,,,
DABOKPA VOC/TECH. INST.,,TAMALE,9.39035621,-0.816440161,SHS,Public,NORTHERN,TAMALE METRO,,,,020 827 0117,dabokpatechvocinst@ges.gov.gh,,YES,,,,,,,,,
VITTING SENIOR HIGH/TECH.,,TAMALE,9.428098767,-0.84474364,SHS,Public,NORTHERN,TAMALE METRO,,,,037 2024781,vittingshst@ges.gov.gh,,YES,,,,,,,,,
"ST. CHARLES SENIOR HIGH SCHOOL, TAMALE",,TAMALE,9.38943281,-0.832365774,SHS,Public,NORTHERN,TAMALE METRO,,,,542385643,stcharlesshs@ges.gov.gh,,YES,,,,,,,,,
ANBARIYA SENIOR HIGH SCHOOL,,TAMALE,9.37990053,-0.789689574,SHS,Public,NORTHERN,TAMALE METRO,,,,+233 24 447 9073,anbariyashs@ges.gov.gh,,YES,,,,,,,,,
TAMALE GIRLS SENIOR HIGH SCHOOL,,TAMALE,9.377420146,-0.761767746,SHS,Public,NORTHERN,TAMALE METRO,,,,242951247,tamalegirlsshs@ges.gov.gh,,YES,,,,,,,,,
"PRESBY SENIOR HIGH SCHOOL, TAMALE",,TAMALE,9.371593889,-0.841189476,SHS,Public,NORTHERN,TAMALE METRO,,,,˜024 647 2928,presbytamaleshs@ges.gov.gh,,NO,,,,,,,,,
E. P. AGRIC SENIOR HIGH/TECH SCHOOL,,TATALE,"9.427981213596718, ",0.844735935,SHS,Public,NORTHERN,TATALE SANGULI,,,,+233 24 987 7300,epagricshst@ges.gov.gh,,NO,,,,,,,,,
KASULIYILI SENIOR HIGH SCHOOL,,KASULIYILI,9.54768732,-1.116117376,SHS,Public,NORTHERN,TOLON,,,,024 456 6731,kasuliyilishs@ges.gov.gh,,NO,,,,,,,,,
TOLON SENIOR HIGH SCHOOL,,TOLON,9.425760301,-1.056283401,SHS,Public,NORTHERN,TOLON,,,,245982462,tolonshs@ges.gov.gh,,YES,,,,,,,,,
DAGBON STATE SENIOR HIGH/TECH SCHOOL,,YENDI,9.441888413,0.007342075,SHS,Public,NORTHERN,YENDI MUNICIPAL,,,,201691546,dagbonstateshst@ges.gov.gh,,YES,,,,,,,,,
YENDI SENIOR HIGH SCHOOL,,YENDI,9.436278729,0.005368503,SHS,Public,NORTHERN,YENDI MUNICIPAL,,,,+233 37 242 2156,yendishs@ges.gov.gh,,YES,,,,,,,,,
ZABZUGU SENIOR HIGH SCHOOL,,ZABZUGU,9.299906801,0.374604354,SHS,Public,NORTHERN,ZABZUGU,,,,208275555,zabzugushs@ges.gov.gh,,YES,,,,,,,,,
WORAWORA SENIOR HIGH SCHOOL,,WORAWORA,7.508090595,0.377520612,SHS,Public,OTI,BIAKOYE,,,,+233 24 991 8218,woraworashs@ges.gov.gh,,YES,,,,,,,,,
TAPAMAN SENIOR HIGH/TECH SCHOOL,,"TAPA-
AMANFROM",7.465621822,0.342735085,SHS,Public,OTI,BIAKOYE,,,,+233 24 252 3771,tapamanshst@ges.gov.gh,,NO,,,,,,,,,
BOWIRI COMM. DAY SCHOOL,,BOWIRI,7.318121097,0.321612395,SHS,Public,OTI,BIAKOYE,,,,242165043,bowiricommdayshs@ges.gov.gh,,NO,,,,,,,,,
NKONYA SENIOR HIGH SCHOOL,,"NKONYA-
AHENKRO",7.137251718,0.325035895,SHS,Public,OTI,BIAKOYE,,,,554104276,nkonyashs@ges.gov.gh,,YES,,,,,,,,,
BIAKOYE COMM. DAY SCHOOL,,KWAMEKROM,7.180730311,0.333970349,SHS,Public,OTI,BIAKOYE,,,,+233 24 313 1823,biakoyecommdayshs@ges.gov.gh,,NO,,,,,,,,,
BUEMAN SENIOR HIGH SCHOOL,,JASIKAN,7.422205768,0.463151853,SHS,Public,OTI,JASIKAN,,,,243268412,buemanshs@ges.gov.gh,,YES,,,,,,,,,
OKADJAKROM SENIOR HIGH/TECH SCHOOL,,OKADJAKROM,7.410325362,0.455165166,SHS,Public,OTI,JASIKAN,,,,+233 50 981 3305,okadjakromshst@ges.gov.gh,,YES,,,,,,,,,
BAGLO  RIDGE SENIOR HIGH/TECH SCHOOL,,BAGLO,7.292168588,0.5942747,SHS,Public,OTI,JASIKAN,,,,244821454,bagloridgeshst@ges.gov.gh,,NO,,,,,,,,,
FR. DOGLI MEMORIAL VOC.TECH. INST.,,NEW AYOMA,7.292051526,0.594242514,SHS,Public,OTI,JASIKAN,,,,244821454,frdoglimemorialtechvocinst@ges.gov.gh,,YES,,,,,,,,,
AHAMANSU ISLAMIC SENIOR HIGH SCHOOL,,AHAMANSU,7.733614151,0.549979847,SHS,Public,OTI,KADJEBI,,,,+233 57 161 5912,ahamansuislamicshs@ges.gov.gh,,NO,,,,,,,,,
DODI-PAPASE SENIOR HIGH/TECH SCHOOL,,DODI PAPASE,7.723677262,0.509776037,SHS,Public,OTI,KADJEBI,,,,548625867,dodipapaseshst@ges.gov.gh,,YES,,,,,,,,,
KADJEBI-ASATO SENIOR HIGH SCHOOL,,KADJETO-ASATO,7.537018924,0.462599726,SHS,Public,OTI,KADJEBI,,,,246446401,kadjebiasatoshs@ges.gov.gh,,YES,,,,,,,,,
OTI SENIOR HIGH/TECH SCHOOL,,DAMBAI,8.049017857,0.190867226,SHS,Public,OTI,KRACHI EAST,,,,+233 50 916 0003,otishst@ges.gov.gh,,YES,,,,,,,,,
YABRAM COMM. DAY SCHOOL,,DAMBAI,8.043683077,0.242288423,SHS,Public,OTI,KRACHI EAST,,,,544099376,yabramcommdayshs@ges.gov.gh,,NO,,,,,,,,,
ASUKAWKAW SENIOR HIGH SCHOOL,,ASUKAWKAW,7.66455732,0.454298327,SHS,Public,OTI,KRACHI EAST,,,,+233 24 367 1070,asukawkawshs@ges.gov.gh,,YES,,,,,,,,,
NCHUMURUMAN COMM. DAY SENIOR HIGH SCHOOL,,[NEAR] TEGBI,7.691995207,0.457933217,SHS,Public,OTI,KRACHI NCHUMURU,,,,+233 24 138 7417,nchumurumancommdayshs@ges.gov.gh,,NO,,,,,,,,,
KETE KRACHI SENIOR HIGH/TECH SCHOOL,,KETE-KRACHI,7.800226652,-0.046430717,SHS,Public,OTI,KRACHI WEST,,,,242755812,ketekrachishst@ges.gov.gh,,NO,,,,,,,,,
KRACHI SENIOR HIGH SCHOOL,,KETE-KRACHI,7.800258541,-0.046473632,SHS,Public,OTI,KRACHI WEST,,,,242755812,krachishs@ges.gov.gh,,YES,,,,,,,,,
KPASSA SENIOR HIGH/TECH SCHOOL,,KPASSA,8.498372359,0.297909268,SHS,Public,OTI,NKWANTA NORTH,,,,+233 24 478 8554,kpassashst@ges.gov.gh,,YES,,,,,,,,,
NKWANTA SENIOR HIGH SCHOOL,,NKWANTA,8.270433423,0.515104158,SHS,Public,OTI,NKWANTA SOUTH,,,,545167983,nkwantashs@ges.gov.gh,,YES,,,,,,,,,
NKWANTA COMM SENIOR HIGH SCHOOL,,NKWANTA,8.275265022,0.509038999,SHS,Public,OTI,NKWANTA SOUTH,,,,+233 24 371 7375,nkwantacommshs@ges.gov.gh,,NO,,,,,,,,,
KYABOBO GIRLS SENIOR HIGH SCHOOL,,NKWANTA,8.261640942,0.517151383,SHS,Public,OTI,NKWANTA SOUTH,,,,+233 50 684 33740,kyabobogirlsshs@ges.gov.gh,,NO,,,,,,,,,
NTRUBOMAN SENIOR HIGH SCHOOL,,BREWANIASE,8.003595746,0.550806068,SHS,Public,OTI,NKWANTA SOUTH,,,,240968960,ntrubomanshs@ges.gov.gh,,YES,,,,,,,,,
BAMBOI COMM. SENIOR HIGH SCHOOL,,BAMBOI,8.175016148,-2.024217032,SHS,Public,SAVANNAH,BOLE,,,,+233 (0)24 3443761,bamboicommshs@ges.gov.gh,,NO,,,,,,,,,
BOLE SENIOR HIGH SCHOOL,,BOLE,9.031636889,-2.478970288,SHS,Public,SAVANNAH,BOLE,,,,509398915,boleshs@ges.gov.gh,,YES,,,,,,,,,
"ST. ANTHONY OF PADUA SENIOR HIGH/TECH
SCHOOL",,BAMBOI,8.801583195,-1.485240936,SHS,Public,SAVANNAH,BOLE,,,,020 831 9382,stanthonyofpaduashs@ges.gov.gh,,NO,,,,,,,,,
BUIPE SENIOR HIGH SCHOOL,,BUIPE,8.801220892,-1.485145174,SHS,Public,SAVANNAH,CENTRAL GONJA,,,,+233 24 967 5753,buipeshs@ges.gov.gh,,YES,,,,,,,,,
BUIPE TECH/VOC INST.,,BUIPE,8.800987636,-1.485145174,TVET,Public,SAVANNAH,CENTRAL GONJA,,,,+233 24 967 5753,buipetechvocinst@ges.gov.gh,,NO,,,,,,,,,
MPAHA COMMUNITY DAY SENIOR HIGH SCHOOL,,MPAHA,8.736803855,-1.127523105,SHS,Public,SAVANNAH,CENTRAL GONJA,,,,200657669,mphashs@ges.gov.gh,,NO,,,,,,,,,
SALAGA SENIOR HIGH SCHOOL,,SALAGA,8.54212432,-0.511604201,SHS,Public,SAVANNAH,EAST GONJA,,,,509897368,salagashs@ges.gov.gh,,YES,,,,,,,,,
SALAGA T.I. AHMAD SENIOR HIGH SCHOOL,,SALAGA,8.54545539,-0.511593676,SHS,Public,SAVANNAH,EAST GONJA,,,,509897368,salagatiahmadiyyashs@ges.gov.gh,,YES,,,,,,,,,
DABOYA COMM. DAY SCHOOL,,DABOYA,9.534098012,-3.780542158,SHS,Public,SAVANNAH,NORTH GONJA,,,,(0)24 938 0988,daboyacommshs@ges.gov.gh,,NO,,,,,,,,,
TUNA SENIOR HIGH/TECH SCHOOL,,TUNA,9.495212375,-2.418487747,SHS,Public,SAVANNAH,SAWLA-TUNA-KALBA,,,,024 515 0311,tunashst@ges.gov.gh,,YES,,,,,,,,,
SAWLA SENIOR HIGH SCHOOL,,SAWLA,9.26084374,-2.39362659,SHS,Public,SAVANNAH,SAWLA-TUNA-KALBA,,,,024 444 1344,sawlashs@ges.gov.gh,,YES,,,,,,,,,
NDEWURA JAKPA SENIOR HIGH/TECH SCHOOL,,DAMONGO,9.085023838,-1.811343734,SHS,Public,SAVANNAH,WEST GONJA,,,,054 612 9224,ndewurajakpashst@ges.gov.gh,,YES,,,,,,,,,
DAMONGO SENIOR HIGH SCHOOL,,DAMONGO,9.085272184,-1.829773844,SHS,Public,SAVANNAH,WEST GONJA,,,,+233 (0)243418541,damongoshs@ges.gov.gh,,YES,,,,,,,,,
BAWKU TECH. INST.,,BAWKU KPALUGU,11.05135376,-0.267367974,TECH,Public,UPPER EAST,BAWKU EAST,,,,382222248,bawkutechinst@ges.gov.gh,,NO,,,,,,,,,
BAWKU SENIOR HIGH/TECH SCHOOL,,BAWKU,11.05997229,-0.24775171,SHS,Public,UPPER EAST,BAWKU MUNICIPAL,,,,209744844,bawkushst@ges.gov.gh,,YES,,,,,,,,,
BAWKU SENIOR HIGH SCHOOL,,BAWKU,11.06036175,-0.247741029,SHS,Public,UPPER EAST,BAWKU MUNICIPAL,,,,+233 382 222 201,bawkushs@ges.gov.gh,,YES,,,,,,,,,
ZEBILLA SENIOR HIGH/TECH SCHOOL,,ZEBILLA,10.92834161,-0.487658474,SHS,Public,UPPER EAST,BAWKU WEST,,,,+233 54 799 2708,zebillashst@ges.gov.gh,,YES,,,,,,,,,
KUSANABA SENIOR HIGH SCHOOL,,KUSANABA,10.74961628,-0.490503661,SHS,Public,UPPER EAST,BAWKU WEST,,,,246169306,kusanabashs@ges.gov.gh,,YES,,,,,,,,,
BINDURI COMM. SENIOR HIGH SCHOOL,,BINDURI,10.97233261,-0.306627703,SHS,Public,UPPER EAST,BINDURI,,,,+233 54 799 2708,binduricommshs@ges.gov.gh,,NO,,,,,,,,,
GAMBIGO COMM. DAY SENIOR HIGH SCHOOL,,GAMBIGO,9.54414908,-0.90559793,SHS,Public,UPPER EAST,BOLGA EAST,,,,244835408,gambigocommshs@ges.gov.gh,,NO,,,,,,,,,
BOLGA TECH. INST.,,BOLGATANGA,10.80642338,-0.874341117,TECH,Public,UPPER EAST,BOLGATANGA,,,,206431932,bolgatechinst@ges.gov.gh,,YES,,,,,,,,,
BOLGA GIRLS SENIOR HIGH SCHOOL,,"ZAARE-
BOLGATANGA",10.80659783,-0.867800705,SHS,Public,UPPER EAST,BOLGATANGA MUNICIPAL,,,,243187889,bolgagirlsshs@ges.gov.gh,,YES,,,,,,,,,
ZUARUNGU SENIOR HIGH SCHOOL,,ZUARUNGU,10.79330696,-0.808142877,SHS,Public,UPPER EAST,BOLGATANGA MUNICIPAL,,,,024 318 7889,zuarungushs@ges.gov.gh,,YES,,,,,,,,,
BOLGA SHERIGU COMM. SENIOR HIGH SCHOOL,,BOLGA,10.7811797,-0.902944921,SHS,Public,UPPER EAST,BOLGATANGA MUNICIPAL,,,,545439631,bolgasherigucommshs@ges.gov.gh,,NO,,,,,,,,,
ZAMSE SENIOR HIGH/TECH SCHOOL,,BOLGATANGA,10.77512206,-0.859884002,SHS,Public,UPPER EAST,BOLGATANGA MUNICIPAL,,,,244768811,zamseshst@ges.gov.gh,,YES,,,,,,,,,
AZEEM-NAMOA SENIOR HIGH/TECH SCHOOL,,"SAMBOLIGO
AMANGA NABIISI",10.98731111,-0.822078601,SHS,Public,UPPER EAST,BONGO,,,,+233 24 476 8811,azeemnamoashst@ges.gov.gh,,NO,,,,,,,,,
BONGO SENIOR HIGH SCHOOL,,BONGO,10.91232777,-0.810622613,SHS,Public,UPPER EAST,BONGO,,,,024 476 8811,bongoshs@ges.gov.gh,,YES,,,,,,,,,
ZORKOR SENIOR HIGH SCHOOL,,ZORKOR,10.79852126,-1.05874225,SHS,Public,UPPER EAST,BONGO,,,,200232386,zorkorshs@ges.gov.gh,,YES,,,,,,,,,
GOWRIE SENIOR HIGH/TECH SCHOOL,,GOWRIE,10.84347829,-0.829539737,SHS,Public,UPPER EAST,BONGO,,,,243461152,gowrieshst@ges.gov.gh,,YES,,,,,,,,,
SANDEMA SENIOR HIGH SCHOOL,,SANDEMA,10.70233517,-1.276202534,SHS,Public,UPPER EAST,BUILSA NORTH,,,,302012345,sandemashs@ges.gov.gh,,YES,,,,,,,,,
SANDEMA SENIOR HIGH/TECH SCHOOL,,DAMPONG,10.76760822,-1.24728131,SHS,Public,UPPER EAST,BUILSA NORTH,,,,030 201 2345,sandemashst@ges.gov.gh,,NO,,,,,,,,,
WIAGA COMM. SENIOR HIGH SCHOOL,,WIAGA,"10?39'34.2""N","1?16'09.1""W",SHS,Public,UPPER EAST,BUILSA NORTH,,,,020 063 2028,wiagacommshs@ges.gov.gh,,NO,,,,,,,,,
KANJAGA COMM. SENIOR HIGH SCHOOL,,KANJAGA,10.5287,-1.3615,SHS,Public,UPPER EAST,BUILSA NORTH,,,,242550015,kanjagacommshs@ges.gov.gh,,NO,,,,,,,,,
FUMBISI SENIOR HIGH SCHOOL,,FUMBISI,"10?27'14.4""N","1?17'33.0""W",SHS,Public,UPPER EAST,BUILSA SOUTH,,,,507171115,fumbisishs@ges.gov.gh,,YES,,,,,,,,,
GARU COMM. DAY SENIOR HIGH SCHOOL,,GARU,"10?50'52.8""N","0?11'23.8""W",SHS,Public,UPPER EAST,GARU TEMPANE,,,,024 932 6292,garucommshs@ges.gov.gh,,NO,,,,,,,,,
TEMPANE SENIOR HIGH SCHOOL,,TEMPANE,"10?51'31.4""N","0?07'42.3""W",SHS,Public,UPPER EAST,GARU TEMPANI,,,,024 514 5457,tempaneshs@ges.gov.gh,,YES,,,,,,,,,
O.L.L. GIRLS SENIOR HIGH SCHOOL,,NAVRONGO,"10?48'02.8""N˜","˜1?04'17.4""W",SHS,Public,UPPER EAST,KASENA-NANKANI,,,,055 148 6711,ourladyoflourdesgilrlsshs@ges.gov.gh,,YES,,,,,,,,,
AWE SENIOR HIGH/TECH SCHOOL,,NAVRONGO,"10?55'20.6""N","1?06'31.9""W",SHS,Public,UPPER EAST,"KASENA-NANKANI
MUNICIPAL",,,,024 459 3157,aweshst@ges.gov.gh,,YES,,,,,,,,,
"ST. JOHN'S INTEGRATED SENIOR HIGH/TECH
SCHOOL",,TONO,"5?38'22.4""N","0?14'42.6""W",SHS,Public,UPPER EAST,"KASENA-NANKANI
MUNICIPAL",,,,024 459 8569,stjohnsintegratedshst@ges.gov.gh,,YES,,,,,,,,,
"NOTRE DAME SEM/ SENIOR HIGH SCHOOL
NAVRONGO",,NAVRONGO,"10?53'00.6""N˜","1?04'20.6""W",SHS,Public,UPPER EAST,"KASENA-NANKANI
MUNICIPAL",,,,024 459 9652,notredamesemshs@ges.gov.gh,,YES,,,,,,,,,
NAVRONGO SENIOR HIGH SCHOOL,,"JANANIA-
NAVRONGO","10?51'31.7""N","1?04'09.8""W",SHS,Public,UPPER EAST,"KASENA-NANKANI
MUNICIPAL",,,,024 474 0594,navrongoshs@ges.gov.gh,,YES,,,,,,,,,
PAGA SENIOR HIGH SCHOOL,,PAGA,"10?58'06.9""N","1?04'09.5""W",SHS,Public,UPPER EAST,KASENA-NANKANI WEST,,,,024 311 3849,pagashs@ges.gov.gh,,NO,,,,,,,,,
SIRIGU INTEGRATED SENIOR HIGH SCHOOL,,SIRIGU,"10?56'54.2""N","0?56'30.7""W",SHS,Public,UPPER EAST,KASENA-NANKANI WEST,,,,054 873 6683,sirigushs@ges.gov.gh,,YES,,,,,,,,,
NABANGO SENIOR HIGH SCHOOL,,NABANGO,"10?55'55.1""N","0?58'26.4""W",SHS,Public,UPPER EAST,KASENA-NANKANI WEST,,,,020 840 6898,nabangoshs@ges.gov.gh,,NO,,,,,,,,,
MIRIGU COMMUNITY DAY SENIOR HIGH SCHOOL,,MIRIGU,"10?54'05.1""N","0?59'59.9""W",SHS,Public,UPPER EAST,KASENA-NANKANI WEST,,,,553360342,mirigucommshs@ges.gov.gh,,NO,,,,,,,,,
CHIANA SENIOR HIGH SCHOOL,,CHIANA,"10?50'54.9""N","1?16'15.3""W",SHS,Public,UPPER EAST,KASENA-NANKANI WEST,,,,024 528 1175,chianashs@ges.gov.gh,,YES,,,,,,,,,
ST. BERNADETTES TECH/VOC. INST.,,NAVRONGO,10.8861,-1.0713˜,TVET,Public,UPPER EAST,KASSENA NANAKANA EAST,,,,206696176,stbernadettestechvocinst@ges.gov.gh,,YES,,,,,,,,,
KONGO SENIOR HIGH SCHOOL,,KONGO,"11?01'57.3""N","0?38'43.6""W",SHS,Public,UPPER EAST,NABDAM,,,,209783068,kongoshs@ges.gov.gh,,YES,,,,,,,,,
TONGO SENIOR HIGH/TECH SCHOOL,,TONGO,"6?36'21.9""N","0?10'51.1""E",SHS,Public,UPPER EAST,TALENSI,,,,+233 24 429 1932,tongoshst@ges.gov.gh,,NO,,,,,,,,,
BOLGATANGA SENIOR HIGH SCHOOL,,BOLGATANGA,"10?43'26.8""N","0?51'41.5""W",SHS,Public,UPPER EAST,TALENSI,,,,024 495 3559,bolgatangashs@ges.gov.gh,,YES,,,,,,,,,
DAFFIAMAH SENIOR HIGH SCHOOL,,DAFFIAMAH,"10?25'28.2""N","˜2?33'22.8""W",SHS,Public,UPPER WEST,BUSSIE-ISSA,,,,054 800 2351,daffiamahshs@ges.gov.gh,,YES,,,,,,,,,
ULLO SENIOR HIGH SCHOOL,,ULLO,"10?41'27.0""N","2?33'56.3""W",SHS,Public,UPPER WEST,JIRAPA,,,,˜024 262 9225,ulloshs@ges.gov.gh,,YES,,,,,,,,,
HAN SENIOR HIGH SCHOOL,,JIRAPA,10.68552?,-2.45971?,SHS,Public,UPPER WEST,JIRAPA,,,,˜024 629 8232,hanshs@ges.gov.gh,,NO,,,,,,,,,
JIRAPA SENIOR HIGH SCHOOL,,JIRAPA-TOWN,"10?32'33.9""N˜","2?41'47.2""W",SHS,Public,UPPER WEST,JIRAPA,,,,020 826 6486,jirapashs@ges.gov.gh,,YES,,,,,,,,,
"ST. FRANCIS GIRLS SENIOR HIGH SCHOOL, JIRAPA",,JIRAPA,"10?30'37.4""N","2?41'41.9""W",SHS,Public,UPPER WEST,JIRAPA,,,,024 023 2966,stfrancisgirlsshs@ges.gov.gh,,YES,,,,,,,,,
PIINA SENIOR HIGH SCHOOL,,PIINA,"10?51'00.0""N","2?37'00.0""W",SHS,Public,UPPER WEST,LAMBUSIE-KARNI,,,,246777289,piinashs@ges.gov.gh,,YES,,,,,,,,,
LAMBUSSIE COMM SENIOR HIGH SCHOOL,,LAMBUSSIE,"10?50'45.6""N","˜2?42'34.4""W",SHS,Public,UPPER WEST,LAMBUSIE-KARNI,,,,020 833 2251,lambussiecommshs@ges.gov.gh,,NO,,,,,,,,,
EREMON SENIOR HIGH/TECH SCHOOL,,EREMON,"10?39'41.3""N","2?49'04.6""W",SHS,Public,UPPER WEST,LAWRA,,,,˜024 497 0628,eremonshst@ges.gov.gh,,YES,,,,,,,,,
LAWRA SENIOR HIGH SCHOOL,,LAWRA,"10?38'10.2""N","2?52'35.6""W",SHS,Public,UPPER WEST,LAWRA,,,,˜054 125 8888,lawrashs@ges.gov.gh,,YES,,,,,,,,,
BIRIFOH SENIOR HIGH SCHOOL,,LAWRA,"10?31'13.7""N","2?51'08.3""W",SHS,Public,UPPER WEST,LAWRA,,,,020 033 2425,birifohshs@ges.gov.gh,,NO,,,,,,,,,
"QUEEN OF PEACE SENIOR HIGH SCHOOL, NADOWLI",,NADOWLI,"10?22'30.5""N","2?41'06.2""W",SHS,Public,UPPER WEST,NADOWLI,,,,024 137 8587,queenofpeaceshs@ges.gov.gh,,YES,,,,,,,,,
"ST. AUGUSTINE SENIOR HIGH/TECH SCHOOL, SAAN
CHARIKPONG",,"SAAN,
CHARIKPONG","5?06'09.6""N","1?15'48.4""W",SHS,Public,UPPER WEST,NADOWLI,,,,202369592,st.augustinecharikpongshst@ges.gov.gh,,YES,,,,,,,,,
TAKPO SENIOR HIGH SCHOOL,,TAKPO,"10?07'33.6""N","2?29'15.7""W",SHS,Public,UPPER WEST,NADOWLI,,,,024 064 2230,takposhst@ges.gov.gh,,NO,,,,,,,,,
KALEO SENIOR HIGH/TECH SCHOOL,,KALEO,"10?15'36.3""N˜","2?31'53.6""W",SHS,Public,UPPER WEST,NADOWLI,,,,039 202 0580,kaleoshst@ges.gov.gh,,YES,,,,,,,,,
ST. BASILIDES VOC./TECH. INST.,,KALEO,"9?54'44.8""N","2?24'05.0""W",SHS,Public,UPPER WEST,NADOWLI KALEO,,,,024 823 4852,stbasilidestechvocinst@ges.gov.gh,,YES,,,,,,,,,
SOMBO SENIOR HIGH SCHOOL,,SOMBO,"10?15'23.4""N","˜2?33'10.1""W",SHS,Public,UPPER WEST,NADOWLI/KALEO,,,,020 906 1016,somboshs@ges.gov.gh,,NO,,,,,,,,,
NANDOM SENIOR HIGH SCHOOL,,NANDOM,"10?52'29.8""N","˜2?45'52.4""W",SHS,Public,UPPER WEST,NANDOM,,,,024 414 2039,nandomshs@ges.gov.gh,,YES,,,,,,,,,
HOLY FAMILY SENIOR HIGH SCHOOL,,HAMILE,"10?59'24.1""N","2?44'35.5""W",SHS,Public,UPPER WEST,NANDOM,,,,054 221 7350,holyfamilyshs@ges.gov.gh,,YES,,,,,,,,,
ST.JOHN'S VOC. TECH. INSTITUTE,,NANDOM,"10?51'09.3""N","2?45'38.0""W",TECH,Public,UPPER WEST,NANDOM,,,,054 232 4483,stjohnstechvocinst@ges.gov.gh,,YES,,,,,,,,,
KO SENIOR HIGH SCHOOL,,KO-NANDOM,"10?47'26.5""N","2?43'59.8""W",SHS,Public,UPPER WEST,NANDOM,,,,024 938 6284,koshs@ges.gov.gh,,YES,,,,,,,,,
TUMU SENIOR HIGH/TECH SCHOOL,,TUMU,"10?52'40.7""N","1?58'31.1""W",SHS,Public,UPPER WEST,SISALA EAST,,,,542708233,tumushst@ges.gov.gh,,YES,,,,,,,,,
KANTON SENIOR HIGH SCHOOL,,TUMU,"5?35'30.9""N","0?14'58.1""W",SHS,Public,UPPER WEST,SISALA EAST,,,,392020854,kantonshs@ges.gov.gh,,YES,,,,,,,,,
DR. HILA LIMAN SENIOR  HIGH SCHOOL,,GWOLLU,"11?03'39.7""N","2?10'46.4""W",SHS,Public,UPPER WEST,SISALA WEST,,,,240392636,drhilalimanshs@ges.gov.gh,,YES,,,,,,,,,
LOGGU COMM. DAY SCHOOL,,LOGGU,9.89701,-2.345478,SHS,Public,UPPER WEST,WA EAST,,,,244948690,loggucommshs@ges.gov.gh,,NO,,,,,,,,,
FUNSI SENIOR HIGH SCHOOL,,FUNSI,"9?48'03.4""N","2?29'24.8""W",SHS,Public,UPPER WEST,WA EAST,,,,24482260,funsishs@ges.gov.gh,,YES,,,,,,,,,
"T. I. AHMADIYYA SENIOR HIGH SCHOOL, WA",,WA,"10?06'02.0""N","2?33'22.0""W",SHS,Public,UPPER WEST,WA MUNICIPAL,,,,+233 24 698 5569,tiahmadiyyawashs@ges.gov.gh,,YES,,,,,,,,,
NORTHERN STAR SENIOR HIGH SCHOOL,,"MANGU, WA","10?02'59.4""N","2?28'57.3""W",SHS,Public,UPPER WEST,WA MUNICIPAL,,,,(0)242-667-691),northernstarshs@ges.gov.gh,,NO,,,,,,,,,
"JAMIAT AL-HIDAYA ISLAMIC GIRLS SENIOR HIGH
SCHOOL",,WA,"10?15'07.8""N","2?08'27.2""W",SHS,Public,UPPER WEST,WA MUNICIPAL,,,,+233 24 451 1164,jamiatalhidayaislamicgirlsshs@ges.gov.gh,,YES,,,,,,,,,
WA SENIOR HIGH/TECH SCHOOL,,WA,"10?02'57.1""N","2?29'28.3""W",SHS,Public,UPPER WEST,WA MUNICIPAL,,,,+233 39 202 2047,washst@ges.gov.gh,,YES,,,,,,,,,
WA SENIOR HIGH SCHOOL,,WA,"10?02'57.1""N","2?29'28.3""W",SHS,Public,UPPER WEST,WA MUNICIPAL,,,,+233 39 202 2047,washs@ges.gov.gh,,YES,,,,,,,,,
WA TECH. INST.,,WA,"10?02'19.5""N","2?30'19.1""W",TECH,Public,UPPER WEST,WA MUNICIPAL,,,,˜039 2022908,watechinst@ges.gov.gh,,YES,,,,,,,,,
"ISLAMIC SENIOR HIGH SCHOOL, WA",,WA,"10?05'06.0""N˜","2?30'51.9""W",SHS,Public,UPPER WEST,WA MUNICIPAL,,,,+533 24 226 8958,islamicwashs@ges.gov.gh,,YES,,,,,,,,,
LASSIE-TUOLU SENIOR HIGH SCHOOL,,LASSIE,"9?50'47.0""N","2?35'59.7""W",SHS,Public,UPPER WEST,WA WEST,,,,+233 54 799 2708,lassietuolushs@ges.gov.gh,,YES,,,,,,,,,
ABUADI/TSREFE SENIOR HIGH SCHOOL,,"ADAKLU -
ABUADI","6?30'43.7""N","0?29'59.4""E",SHS,Public,VOLTA,ADAKLU,,,,026 478 8251,abuaditsrefecomm.shs@ges.gov.gh,,NO,,,,,,,,,
ADAKLU SENIOR HIGH SCHOOL,,ADAKLU,"6?26'47.6""N","0?37'42.5""E",SHS,Public,VOLTA,ADAKLU-ANYIGBE,,,,+233 55 718 1799,adaklushs@ges.gov.gh,,YES,,,,,,,,,
VE COMM. SENIOR HIGH SCHOOL,,VE-KOLOENU,"7?02'43.2""N","0?25'49.2""E",SHS,Public,VOLTA,AFADZATO SOUTH,,,,024 670 9103,vecommshs@ges.gov.gh,,YES,,,,,,,,,
LEKLEBI SENIOR HIGH SCHOOL,,LEKLEBI,"6?57'32.0""N","0?29'38.9""E",SHS,Public,VOLTA,AFADZATO SOUTH,,,,+233 24 411 6308,leklebishs@ges.gov.gh,,YES,,,,,,,,,
JIM BOURTON MEM AGRIC. SENIOR HIGH SCHOOL,,LOGBA ADZOKOE,"6?54'15.9""N","0?26'23.5""E",SHS,Public,VOLTA,AFADZATO SOUTH,,,,091- 95320,jimbourtonmemagricshs@ges.gov.gh,,YES,,,,,,,,,
AGATE COMM. SENIOR HIGH SCHOOL,,AGATE,"6?44'51.8""N","0?21'10.4""E",SHS,Public,VOLTA,AFADZATO SOUTH,,,,+233 24 352 2318,agatecommshs@ges.gov.gh,,YES,,,,,,,,,
ST. DANIEL COMBONI TECH/VOC INST.,,LIATI,"6?58'57.6""N","0?29'21.4""E",TVET,Public,VOLTA,AFADZTO SOUTH,,,,024 412 5707,stdanielcombonitechvocinst@ges.gov.gh,,YES,,,,,,,,,
HAVE TECH. INST.,,HAVE,"6?45'48.2""N","0?21'51.3""E",TECH,Public,VOLTA,AFADZTO SOUTH,,,,036 209 5185,havetechinst@ges.gov.gh,,YES,,,,,,,,,
AGOTIME SENIOR HIGH SCHOOL,,KPETOE,"6?33'08.3""N","0?41'45.3""E",SHS,Public,VOLTA,AGORTIME ZIOPE,,,,+233 20 378 3717,agotimeshs@ges.gov.gh,,YES,,,,,,,,,
ZIOPE SENIOR HIGH SCHOOL,,ZIOPE,"6?25'36.1""N","0?43'57.9""E",SHS,Public,VOLTA,AGORTIME ZIOPE,,,,024 442 8421,ziopeshs@ges.gov.gh,,NO,,,,,,,,,
AKATSI SENIOR HIGH/TECH SCHOOL,,AKATSI,"6?07'59.3""N","0?47'10.8""E",SHS,Public,VOLTA,AKATSI,,,,+233 20 764 7628,akatsishst@ges.gov.gh,,YES,,,,,,,,,
AVE SENIOR HIGH SCHOOL,,AVE-DAKPA,"6?21'58.4""N","0?50'53.6""E",SHS,Public,VOLTA,AKATSI NORTH,,,,+233 24 346 5799,aveshs@ges.gov.gh,,YES,,,,,,,,,
AVENOR SENIOR HIGH SCHOOL,,AVENORKPEME,"6?00'00.2""N","0?49'09.1""E",SHS,Public,VOLTA,AKATSI SOUTH,,,,+233 24 544 0191,avenorshs@ges.gov.gh,,NO,,,,,,,,,
ABOR SENIOR HIGH SCHOOL,,ABOR,"6?03'49.1""N","0?51'43.8""E",SHS,Public,VOLTA,ANLO KETA MUNICIPAL,,,,+233 20 827 2768,aborshs@ges.gov.gh,,YES,,,,,,,,,
ANLO AFIADENYIGBA SENIOR HIGH SCHOOL,,"ANLO
AFIADENYIGBA","6?02'44.0""N","0?58'40.3""E",SHS,Public,VOLTA,ANLO KETA MUNICIPAL,,,,+233 24 301 6791,anloafiadenyigbashs@ges.gov.gh,,YES,,,,,,,,,
TSIAME SENIOR HIGH SCHOOL,,TSIAME,"6?00'37.0""N","0?51'38.1""E",SHS,Public,VOLTA,ANLO KETA MUNICIPAL,,,,+233 24 221 4414,tsiameshs@ges.gov.gh,,NO,,,,,,,,,
ANLO AWOMEFIA SENIOR HIGH SCHOOL,,ANYAKO,"6?00'51.8""N","0?54'09.6""E",SHS,Public,VOLTA,ANLO KETA MUNICIPAL,,,,+233 24 301 6791,anloawomefiashs@ges.gov.gh,,YES,,,,,,,,,
ATIAVI SENIOR HIGH/TECH SCHOOL,,ATIAVI,"5?57'42.6""N","0?50'14.9""E",SHS,Public,VOLTA,ANLO KETA MUNICIPAL,,,,+233 24 654 7460,atiavishst@ges.gov.gh,,NO,,,,,,,,,
KETA BUSINESS SENIOR HIGH SCHOOL,,KETA,"5?52'42.5""N","0?59'08.1""E",SHS,Public,VOLTA,ANLO KETA MUNICIPAL,,,,036 264 2380,ketabusinessshs@ges.gov.gh,,YES,,,,,,,,,
ANLO SENIOR HIGH SCHOOL,,ANLOGA,"5?48'29.5""N","0?55'51.6""E",SHS,Public,VOLTA,ANLO KETA MUNICIPAL,,,,+233 24 345 6162,anloshs@ges.gov.gh,,YES,,,,,,,,,
ZION SENIOR HIGH SCHOOL,,ANLOGA,"6?14'34.4""N","0?23'38.1""W",SHS,Public,VOLTA,ANLO KETA MUNICIPAL,,,,+233 24 499 0025,zionshs@ges.gov.gh,,YES,,,,,,,,,
VOLTA SENIOR HIGH SCHOOL,,"DZITA-
AGBLEDOMI","5?46'39.5""N","0?44'48.5""E",SHS,Public,VOLTA,ANLO KETA MUNICIPAL,,,,024 307 5676,voltashs@ges.gov.gh,,NO,,,,,,,,,
MAFI-KUMASI SENIOR HIGH/TECH SCHOOL,,MAFI-KUMASI,"6?17'03.6""N","0?34'08.9""E",SHS,Public,VOLTA,CENTRAL TONGU,,,,+233 20 818 7567,mafikumasishst@ges.gov.gh,,YES,,,,,,,,,
ADIDOME SENIOR HIGH SCHOOL,,ADIDOME,6.093528687,0.506450997,SHS,Public,VOLTA,CENTRAL TONGU,,,,+233 24 203 7510,adidomeshs@ges.gov.gh,,YES,,,,,,,,,
VOLTA TECH INST,,MATSE,6.704224916,0.474544468,SHS,Public,VOLTA,HO,,,,024 530 0975,voltatechinst@ges.gov.gh,,YES,,,,,,,,,
SHIA SENIOR HIGHTECHNICAL SCHOOL,,SHIA,0.562143,6.795875,SHS,Public,VOLTA,HO MUNICIPAL,,,,024 411 6594,shiashst@ges.gov.gh,,NO,,,,,,,,,
TANYIGBE SENIOR HIGH SCHOOL,,TANYIGBE,6.697770886,0.521643441,SHS,Public,VOLTA,HO MUNICIPAL,,,,209091616,tanyigbeshs@ges.gov.gh,,YES,,,,,,,,,
"OLA GIRLS SENIOR HIGH SCHOOL, HO",,HO,6.618117044,0.467659241,SHS,Public,VOLTA,HO MUNICIPAL,,,,362026224,olagirlsshs@ges.gov.gh,,YES,,,,,,,,,
TAVIEFE COMM. SENIOR HIGH SCHOOL,,TAVIEFE,6.66100168,0.471552093,SHS,Public,VOLTA,HO MUNICIPAL,,,,247096768,taviefecommshs@ges.gov.gh,,YES,,,,,,,,,
E.P.C. MAWUKO GIRLS SENIOR HIGH SCHOOL,,HO,6.60094825,0.47359457,SHS,Public,VOLTA,HO MUNICIPAL,,,,+233 24 483 5243,epcmawukogirlsshs@ges.gov.gh,,YES,,,,,,,,,
"MAWULI SCHOOL, HO",,HO,6.597734423,0.475770243,SHS,Public,VOLTA,HO MUNICIPAL,,,,+233 20 820 0199,mawulischoolshs@ges.gov.gh,,YES,,,,,,,,,
SOKODE SENIOR HIGH/TECH SCHOOL,,SOKODE,6.572891845,0.407492183,SHS,Public,VOLTA,HO MUNICIPAL,,,,020 863 1394,sokodeshst@ges.gov.gh,,YES,,,,,,,,,
AWUDOME SENIOR HIGH SCHOOL,,TSITO,6.550450983,0.298853397,SHS,Public,VOLTA,HO MUNICIPAL,,,,+233 24 663 3824,awudomeshs@ges.gov.gh,,YES,,,,,,,,,
AMEDZOFE TECHNICAL INSTITUTE,,AMEDZOFE,6.845708856,0.440908541,SHS,Public,VOLTA,HO WEST,,,,024 413 2496,amedzofetechinst@ges.gov.gh,,NO,,,,,,,,,
KPEDZE SENIOR HIGH SCHOOL,,KPEDZE,6.840477744,0.49032171,SHS,Public,VOLTA,HO WEST,,,,244986818,kpedzesehs@ges.gov.gh,,YES,,,,,,,,,
AVATIME SENIOR HIGH SCHOOL,,VANE,6.825270446,0.424664022,SHS,Public,VOLTA,HO WEST,,,,547447300,avatimeshs@ges.gov.gh,,YES,,,,,,,,,
AKOME SENIOR HIGH/TECH SCHOOL,,AKOME,6.814118962,0.468180254,SHS,Public,VOLTA,HO WEST,,,,+233 24 597 27976,akomeshst@ges.gov.gh,,YES,,,,,,,,,
DZOLO SENIOR HIGH SCHOOL,,DZOLO,6.775748519,0.481286912,SHS,Public,VOLTA,HO WEST,,,,+233 24 429 1932,dzoloshs@ges.gov.gh,,YES,,,,,,,,,
TSITO SENIOR HIGH/TECH SCHOOL,,TSITO,6.551320582,0.299010056,SHS,Public,VOLTA,HO WEST,,,,244428421,tsitoshst@ges.gov.gh,,YES,,,,,,,,,
ABUTIA SENIOR HIGH/TCHNICAL SCHOOL,,ABUTIA,6.507979524,0.374149712,SHS,Public,VOLTA,HO WEST,,,,+233 20 767 5981,abutiashst@ges.gov.gh,,YES,,,,,,,,,
"E. P. TECHNICAL VOCATIONAL INSTITUTE
ALAVANYO",,FORSON DOTSE,6.062408867,0.454901672,SHS,Public,VOLTA,HOHOE,,,,246730029,eptechvocinst@ges.gov.gh,,YES,,,,,,,,,
AKPAFU SENIOR HIGH/TECH SCHOOL,,AKPAFU,7.240184574,0.469036626,SHS,Public,VOLTA,HOHOE MUNICIPAL,,,,545550559,akpafushst@ges.gov.gh,,YES,,,,,,,,,
LIKPE SENIOR HIGH SCHOOL,,LIKPE-MATE,7.224889762,0.605890299,SHS,Public,VOLTA,HOHOE MUNICIPAL,,,,˜054 386 6428,likpeshs@ges.gov.gh,,YES,,,,,,,,,
E. P. SENIOR HIGH SCHOOL,,HOHOE,7.170835473,0.468352556,SHS,Public,VOLTA,HOHOE MUNICIPAL,,,,+233 24 346 7774,epshs@ges.gov.gh,,YES,,,,,,,,,
"ST. MARY'S SEM.& SENIOR HIGH SCHOOL, LOLOBI",,LOLOBI,7.154554568,0.487849513,SHS,Public,VOLTA,HOHOE MUNICIPAL,,,,244960998,stmaryssemshs@ges.gov.gh,,YES,,,,,,,,,
ALAVANYO SENIOR HIGH/TECH SCHOOL,,"ALAVANYO-
KPEME",7.119560756,0.355209612,SHS,Public,VOLTA,HOHOE MUNICIPAL,,,,573231044,alavanyoshst@ges.gov.gh,,YES,,,,,,,,,
AFADJATO SENIOR HIGH/TECH SCHOOL,,"GBLEDI-
GBOGAME",7.036750607,0.558193195,SHS,Public,VOLTA,HOHOE MUNICIPAL,,,,+233 24 485 6247,afadjatoshst@ges.gov.gh,,YES,,,,,,,,,
KETA SENIOR HIGH/TECH SCHOOL,,KETA,5.790115926,0.867957512,SHS,Public,VOLTA,KETA,,,,+233 24 412 5707,ketashst@ges.gov.gh,,YES,,,,,,,,,
ANLO TECH. INST.,,ANLOGA,5.790105252,0.86797897,TECH,Public,VOLTA,KETA,,,,+233 20 816 2907,anlotechinst@ges.gov.gh,,YES,,,,,,,,,
DZODZE PENYI SENIOR HIGH SCHOOL,,DZODZE,6.227216341,1.017304493,SHS,Public,VOLTA,KETU NORTH,,,,+233 24 065 4718,dzodzepenyishs@ges.gov.gh,,YES,,,,,,,,,
WOVENU SENIOR HIGH TECHNICAL SCHOOL,,TADZEWU,6.192085814,0.893724554,SHS,Public,VOLTA,KETU NORTH,,,,559875619,wovenushst@ges.gov.gh,,YES,,,,,,,,,
WETA SENIOR HIGH/TECH SCHOOL,,WETA,6.130100115,0.983786026,SHS,Public,VOLTA,KETU NORTH,,,,055 228 8938,wetashst@ges.gov.gh,,YES,,,,,,,,,
AFIFE SENIOR HIGH TECH SCHOOL,,AFIFE,6.063036272,0.916508172,SHS,Public,VOLTA,KETU NORTH,,,,+233 24 498 0397,afifeshst@ges.gov.gh,,YES,,,,,,,,,
"ST. PAUL'S SENIOR HIGH SCHOOL, DENU",,"HATSUKOPE/
DENU",6.124601609,1.123904649,SHS,Public,VOLTA,KETU SOUTH,,,,+233 55 675 4672,stpaulsdenushs@ges.gov.gh,,YES,,,,,,,,,
THREE TOWN SENIOR HIGH SCHOOL,,DENU,6.096485118,1.140849403,SHS,Public,VOLTA,KETU SOUTH,,,,+233 24 484 5983,threetownshs@ges.gov.gh,,YES,,,,,,,,,
SOME SENIOR HIGH SCHOOL,,AGBOZUME,6.083494106,1.041657495,SHS,Public,VOLTA,KETU SOUTH,,,,244105546,someshs@ges.gov.gh,,YES,,,,,,,,,
KLIKOR SENIOR HIGH/TECH SCHOOL,,KLIKOR,6.071395175,1.034529681,SHS,Public,VOLTA,KETU SOUTH,,,,545458042,klikorshst@ges.gov.gh,,YES,,,,,,,,,
BISHOP HERMAN COLLEGE,,KPANDO,7.00567077,0.282694114,SHS,Public,VOLTA,KPANDO,,,,201755055,bishophermancollegeshs@ges.gov.gh,,YES,,,,,,,,,
KPANDO SENIOR HIGH SCHOOL,,KPANDO,6.988189625,0.290339208,SHS,Public,VOLTA,KPANDO,,,,362350204,kpandoshs@ges.gov.gh,,YES,,,,,,,,,
KPANDO TECH. INST.,,KPANDO,6.986897672,0.293758741,TECH,Public,VOLTA,KPANDO,,,,501335205,kpandotechinst@ges.gov.gh,,YES,,,,,,,,,
C.Y.O.VOC. TECH. INST.,,SOVIE,6.926884506,0.285187412,TECH,Public,VOLTA,KPANDO,,,,207348145,cyotechvocinst@ges.gov.gh,,YES,,,,,,,,,
ANFOEGA SENIOR HIGH SCHOOL,,ANFOEGA,6.909021266,0.288517272,SHS,Public,VOLTA,NORTH DAYI,,,,+233 20 320 4550,anfoegashs@ges.gov.gh,,YES,,,,,,,,,
VAKPO SENIOR HIGH/TECH SCHOOL,,VAKPO,6.860991207,0.285423712,SHS,Public,VOLTA,NORTH DAYI,,,,+233 695 4549,vakposhst@ges.gov.gh,,YES,,,,,,,,,
VAKPO SENIOR HIGH SCHOOL,,VAKPO,6.845189348,0.299028422,SHS,Public,VOLTA,NORTH DAYI,,,,541642313,vakposhs@ges.gov.gh,,YES,,,,,,,,,
DOFOR SENIOR HIGH SCHOOL,,JUAPONG,6.288908117,0.199492499,SHS,Public,VOLTA,NORTH TONGU,,,,+233 20 443 3069,doforshs@ges.gov.gh,,YES,,,,,,,,,
MEPE ST. KIZITO SENIOR HIGH/TECH SCHOOL,,MEPE,6.075507116,0.429896254,SHS,Public,VOLTA,NORTH TONGU,,,,244136348,mepestkizitoshst@ges.gov.gh,,YES,,,,,,,,,
BATTOR SENIOR HIGH SCHOOL,,BATTOR,6.068813963,0.408002697,SHS,Public,VOLTA,NORTH TONGU,,,,+233 24 387 8354,battorshs@ges.gov.gh,,YES,,,,,,,,,
VOLO COMM. SENIOR HIGH SCHOOL,,VOLO,6.074470436,0.300812912,SHS,Public,VOLTA,NORTH TONGU,,,,055 782 6126,volocommshs@ges.gov.gh,,NO,,,,,,,,,
AVEYIME BATTOR SENIOR HIGH/TECH SCHOOL,,"AVEYIME-
BATTOR",6.019717907,0.373892956,SHS,Public,VOLTA,NORTH TONGU,,,,+233 24 489 5672,aveyimebattorshst@ges.gov.gh,,YES,,,,,,,,,
KPEVE SENIOR HIGH SCHOOL,,KPEVE,6.677424412,0.326756524,SHS,Public,VOLTA,SOUTH DAYI,,,,054 427 0353,kpeveshs@ges.gov.gh,,YES,,,,,,,,,
TONGOR SENIOR HIGH TECH SCHOOL,,KPEVE,6.601066538,0.17886177,SHS,Public,VOLTA,SOUTH DAYI,,,,244544867,tongorshst@ges.gov.gh,,YES,,,,,,,,,
PEKI SENIOR HIGH SCHOOL,,PEKI,6.540722747,0.233561361,SHS,Public,VOLTA,SOUTH DAYI,,,,544270353,pekishs@ges.gov.gh,,YES,,,,,,,,,
PEKI SENIOR HIGH/TECHNICAL SCHOOL,,PEKI,6.535780537,0.246968526,SHS,Public,VOLTA,SOUTH DAYI,,,,+233 24 665 9922,pekishst@ges.gov.gh,,YES,,,,,,,,,
ST. CATHERINE GIRLS SENIOR HIGH SCHOOL,,AGBAKOPE,6.033988608,0.709207368,SHS,Public,VOLTA,SOUTH TONGU,,,,244088004,stcatherinegirlsshs@ges.gov.gh,,YES,,,,,,,,,
COMBONI TECH/VOC INST.,,SOGAKOPE,6.003369326,0.586844852,TVET,Public,VOLTA,SOUTH TONGU,,,,207733937,combonitechvocinst@ges.gov.gh,,YES,,,,,,,,,
SOGAKOPE SENIOR HIGH SCHOOL,,SOGAKOPE,5.9929183,0.601039112,SHS,Public,VOLTA,SOUTH TONGU,,,,244153806,sogakopeshs@ges.gov.gh,,YES,,,,,,,,,
DABALA SENIOR HIGH/TECH.,,DABALA,5.98894695,0.677734295,SHS,Public,VOLTA,SOUTH TONGU,,,,249507991,dabalashst@ges.gov.gh,,YES,,,,,,,,,
ASANKRANGWA SENIOR HIGH/TECH SCHOOL,,ASANKRAGWA,5.815770982,-2.43987553,SHS,Public,WESTERN,WASSA AMENFI WEST,,,,543695468,asankrangwashst@ges.gov.gh,,YES,,,,,,,,,
"ST. MARY'S BOYS' SENIOR HIGH SCHOOL, APOWA",,APOWA,4.896580859,-1.809363174,SHS,Public,WESTERN,AHANTA WEST,,,,312022061,stmarysboysshs@ges.gov.gh,,YES,,,,,,,,,
BAIDOO BONSOE SENIOR HIGH/TECH SCHOOL,,"AGONA
NKWANTA",4.893974478,-1.966702667,SHS,Public,WESTERN,AHANTA WEST,,,,031-91130,baidoobonsoshst@ges.gov.gh,,YES,,,,,,,,,
SANKOR COMM. DAY SENIOR HIGH SCHOOL,,SANKOR,4.824688203,-1.957601439,SHS,Public,WESTERN,AHANTA WEST,,,,020 833 8782,sankorcommshs@ges.gov.gh,,NO,,,,,,,,,
BONZO-KAKU SENIOR HIGH SCHOOL,,AWIEBO,5.055938203,-2.471036003,SHS,Public,WESTERN,ELLEMBELE,,,,557424912,bonzokakushs@ges.gov.gh,,YES,,,,,,,,,
UTHMAN BIN AFAM SENIOR HIGH SCHOOL,,KAMGBUNLI,4.974678284,-2.409418961,SHS,Public,WESTERN,ELLEMBELE,,,,243142708,uthmanbinafamshs@ges.gov.gh,,YES,,,,,,,,,
NKROFUL AGRIC. SENIOR HIGH SCHOOL,,NKROFUL,4.971931608,-2.322572032,SHS,Public,WESTERN,ELLEMBELE,,,,201410757,nkrofulagricshs@ges.gov.gh,,YES,,,,,,,,,
ESIAMA SENIOR HIGH/TECH SCHOOL,,ESIAMA,4.933229867,-2.345497213,SHS,Public,WESTERN,ELLEMBELE,,,,+233 27 420 1823,esiamashst@ges.gov.gh,,YES,,,,,,,,,
KIKAM TECH. INST.,,KIKAM,4.932556046,-2.335722103,TECH,Public,WESTERN,ELLEMBELLE,,,,542202670,kikamtechinst@ges.gov.gh,,YES,,,,,,,,,
HALF ASSINI SENIOR HIGH SCHOOL,,HALF ASSINI,5.608310081,-0.251385225,SHS,Public,WESTERN,JOMORO,,,,312024314,halfassinishs@ges.gov.gh,,YES,,,,,,,,,
ANNOR ADJAYE SENIOR HIGH SCHOOL,,EZILIBO,5.02338815,-2.717773901,SHS,Public,WESTERN,JOMORO,,,,+233 242 314 962,annoradjayeshs@ges.gov.gh,,YES,,,,,,,,,
MPOHOR SENIOR HIGH SCHOOL,,MPOHOR,4.979548657,-1.895763923,SHS,Public,WESTERN,MPOHOR,,,,+233 24 305 1894,mpohorshs@ges.gov.gh,,YES,,,,,,,,,
DABOASE SENIOR HIGH/TECH SCHOOL,,DABOASE,5.142965966,-1.659686274,SHS,Public,WESTERN,MPOHOR WASSA EAST,,,,+233 24 305 1894,daboaseshst@ges.gov.gh,,YES,,,,,,,,,
GWIRAMAN COMM.SENIOR HIGH SCHOOL,,BAMIANKO,4.874588251,-2.239841338,SHS,Public,WESTERN,NZEMA EAST MUNICIPAL,,,,024 177 7863,gwiramancommshs@ges.gov.gh,,NO,,,,,,,,,
NSEIN SENIOR HIGH SCHOOL,,NSEIN,4.866752409,-2.240839117,SHS,Public,WESTERN,NZEMA EAST MUNICIPAL,,,,+233 54 779 3210,nseinshs@ges.gov.gh,,YES,,,,,,,,,
AXIM GIRLS SENIOR HIGH SCHOOL,,AXIM,4.872913619,-2.241082234,SHS,Public,WESTERN,NZEMA EAST MUNICIPAL,,,,244789793,aximgirlsshs@ges.gov.gh,,YES,,,,,,,,,
"ST. AUGUSTINE'S SENIOR HIGH SCHOOL, BOGOSO",,BOGOSO,5.568151768,-2.007854085,SHS,Public,WESTERN,PRESTEA HUNI VALLEY,,,,240707940,staugustinesbogososhs@ges.gov.gh,,YES,,,,,,,,,
HUNI VALLEY SENIOR HIGH SCHOOL,,HUNI VALLLEY,5.469935296,-1.905241948,SHS,Public,WESTERN,PRESTEA HUNI VALLEY,,,,024 473 7905,hunivalleyshs@ges.gov.gh,,YES,,,,,,,,,
PRESTEA SENIOR HIGH/TECH SCHOOL,,PRESTEA,5.447153245,-2.133980963,SHS,Public,WESTERN,PRESTEA HUNI VALLEY,,,,024 475 2913,presteashst@ges.gov.gh,,YES,,,,,,,,,
SEKONDI COLLEGE,,SEKONDI,4.982496887,-1.686592203,SHS,Public,WESTERN,SEKONDI TAKORADI METRO,,,,024 493 8600,sekondicollege@ges.gov.gh,,YES,,,,,,,,,
DIABENE SENIOR HIGH/TECH SCHOOL,,DIABENE,4.963095832,-1.748592874,SHS,Public,WESTERN,SEKONDI TAKORADI METRO,,,,243954413,diabeneshst@ges.gov.gh,,YES,,,,,,,,,
ARCHBISHOP PORTER GIRLS SENIOR HIGH SCHOOL,,SEKONDI,4.941769087,-1.748710103,SHS,Public,WESTERN,SEKONDI TAKORADI METRO,,,,302512869,archbishopportergirlshs@ges.gov.gh,,YES,,,,,,,,,
ADIEMBRA SENIOR HIGH SCHOOL,,DIABENE,4.939058788,-1.730166944,SHS,Public,WESTERN,SEKONDI TAKORADI METRO,,,,312048425,adiembrashs@ges.gov.gh,,YES,,,,,,,,,
"METHODIST SENIOR HIGH SCHOOL, SEKONDI",,SEKONDI,4.937080972,-1.709098799,SHS,Public,WESTERN,SEKONDI TAKORADI METRO,,,,031 2046405.,methodistsekondishs@ges.gov.gh,,NO,,,,,,,,,
"ST. JOHN'S SENIOR HIGH SCHOOL, SEKONDI",,SEKONDI,4.932324368,-1.727793415,SHS,Public,WESTERN,SEKONDI TAKORADI METRO,,,,+233 24 613 7346,stjohnsshs@ges.gov.gh,,YES,,,,,,,,,
FIJAI SENIOR HIGH SCHOOL,,SEKONDI,4.929846714,1.74600469,SHS,Public,WESTERN,SEKONDI TAKORADI METRO,,,,312023427,fijaishs@ges.gov.gh,,YES,,,,,,,,,
TAKORADI SENIOR HIGH SCHOOL,,TANOKROM,4.919255465,-1.773730046,SHS,Public,WESTERN,SEKONDI TAKORADI METRO,,,,268185224,takoradishs@ges.gov.gh,,YES,,,,,,,,,
GHANA SENIOR HIGH/TECH SCHOOL,,TAKORADI,4.897740017,-1.749905446,SHS,Public,WESTERN,SEKONDI TAKORADI METRO,,,,246920843,ghanashst@ges.gov.gh,,YES,,,,,,,,,
BOMPEH SENIOR HIGH./TECH SCHOOL,,TAKORADI,4.889931992,-1.760741459,SHS,Public,WESTERN,SEKONDI TAKORADI METRO,,,,240141807,bompehshst@ges.gov.gh,,NO,,,,,,,,,
TAKORADI TECH. INST.,,TAKORADI,"4?55'05.5""N","1?46'02.2""W",TECH,Public,WESTERN,SEKONDI-TAKORADI,,,,055 393 4214,takoraditechinst@ges.gov.gh,,NO,,,,,,,,,
SHAMA SENIOR HIGH SCHOOL,,SHAMA,"5?01'22.9""N","1?38'08.7""W",SHS,Public,WESTERN,SHAMA,,,,054 966 0888,shamashs@ges.gov.gh,,YES,,,,,,,,,
AHANTAMAN GIRLS' SENIOR HIGH SCHOOL,,SEKONDI-KETAN,"4?57'33.1""N˜","1?43'44.4""W",SHS,Public,WESTERN,SHAMA AHANTA EAST,,,,031 219 2322,ahantamangirlsshs@ges.gov.gh,,YES,,,,,,,,,
TARKWA SENIOR HIGH SCHOOL,,TARKWA,"5?17'28.3""N","2?00'10.0""W",SHS,Public,WESTERN,"TARKWA-NSUAEM
MUNICIPAL",,,,055 715 6018,tarkwashs@ges.gov.gh,,YES,,,,,,,,,
FIASEMAN SENIOR HIGH SCHOOL,,"BANKYIM
TARKWA*","5?35'32.1""N","0?14'55.8""W",SHS,Public,WESTERN,"TARKWA-NSUAEM
MUNICIPAL",,,,031 232 0548,fiasemanshs@ges.gov.gh,,YES,,,,,,,,,
BENSO SENIOR HIGH/TECH SCHOOL,,BENSO,"5?09'09.6""N","1?52'54.3""W",SHS,Public,WESTERN,"TARKWA-NSUAEM
MUNICIPAL",,,,024 855 8478,bensoshst@ges.gov.gh,,YES,,,,,,,,,
AMENFIMAN SENIOR HIGH SCHOOL,,"WASA
AKROPONG","5?46'48.3""N","2?05'28.1""W",SHS,Public,WESTERN,WASSA AMENFI EAST,,,,055 413 2742,amenfimanshs@ges.gov.gh,,YES,,,,,,,,,
ASANKRANGWA SENIOR HIGH SCHOOL,,ASANKRAGWA,"5?48'28.8""N","˜2?25'35.6""W",SHS,Public,WESTERN,WASSA AMENFI WEST,,,,˜050 646 5155,asankrangwashs@ges.gov.gh,,YES,,,,,,,,,
NANA BRENTU SENIOR HIGH/TECH SCHOOL,,ENCHI,"5?48'43.3""N","2?49'30.5""W",SHS,Public,"WESTERN
NORTH",AOWIN SUAMAN,,,,024 417 2731,nanabrentushst@ges.gov.gh,,YES,,,,,,,,,
BIA SENIOR HIGH/TECH SCHOOL,,DEBISO ESSIAM,"6?39'57.1""N","3?05'40.5""W",SHS,Public,"WESTERN
NORTH",BIA WEST,,,,024 802 8641,biashst@ges.gov.gh,,YES,,,,,,,,,
ADJOAFUA COMM. SENIOR HIGH SCHOOL,,ADJOAFUA,"6?39'57.1""N","3?07'05.3""W",SHS,Public,"WESTERN
NORTH",BIA WEST,,,,024 615 3589,adjoafuacommshs@ges.gov.gh,,NO,,,,,,,,,
BIBIANI SENIOR HIGH/TECH SCHOOL,,BIBIANI,"6?27'47.2""N","˜2?18'15.1""W",SHS,Public,"WESTERN
NORTH","BIBIANI/ANHWIASO/
BEKWAI",,,,024 802 8641,bibianishst@ges.gov.gh,,YES,,,,,,,,,
"QUEENS GIRLS' SENIOR HIGH SCHOOL, SEFWI
AWHIASO",,"SEFWI
ANWHIASO","6?19'08.0""N","2?15'01.8""W",SHS,Public,"WESTERN
NORTH","BIBIANI/ANHWIASO/
BEKWAI",,,,024 227 9358,queensgirlsshs@ges.gov.gh,,YES,,,,,,,,,
CHIRANO COMM. DAY SENIOR HIGH SCHOOL,,CHIRANO,"6?18'41.3""N","2?22'56.5""W",SHS,Public,"WESTERN
NORTH","BIBIANI/ANHWIASO/
BEKWAI",,,,024 212 1935,chiranocommshs@ges.gov.gh,,NO,,,,,,,,,
SEFWI BEKWAI SENIOR HIGH SCHOOL,,SEFWI BEKWAI,"6?12'10.9""N","2?18'44.5""W",SHS,Public,"WESTERN
NORTH","BIBIANI/ANHWIASO/
BEKWAI",,,,024 365 2013,sefwibekwaishs@ges.gov.gh,,YES,,,,,,,,,
BODI SENIOR HIGH SCHOOL,,BODI,"6?13'22.1""N","˜2?45'28.5""W",SHS,Public,"WESTERN
NORTH",BODI,,,,024 237 5196,bodishs@ges.gov.gh,,NO,,,,,,,,,
JUABOSO SENIOR HIGH SCHOOL,,JUABOSO,"6?20'40.5""N","2?49'39.0""W",SHS,Public,"WESTERN
NORTH",JUABESO,,,,020 842 0335,juabososhs@ges.gov.gh,,YES,,,,,,,,,
NSAWORA EDUMAFA COMM. SENIOR HIGH SCHOOL,,"NSAWORA
EDUMAFA","6?08'31.7""N","2?36'16.3""W",SHS,Public,"WESTERN
NORTH",SEFWI AKONTOMBRA,,,,024 476 7990,nsaworaedumafacommshs@ges.gov.gh,,NO,,,,,,,,,
AKONTOMBRA SENIOR HIGH SCHOOL,,AKONTOMBRA,"6?02'45.4""N˜","2?52'09.8""W",SHS,Public,"WESTERN
NORTH",SEFWI AKONTOMBRA,,,,055 124 6505,akontombrashs@ges.gov.gh,,YES,,,,,,,,,
ASAWINSO SENIOR HIGH SCHOOL,,ASAWINSO,"6?25'26.4""N","2?42'16.3""W",SHS,Public,"WESTERN
NORTH",SEFWI WIAWSO,,,,024 451 1668,asawinsoshs@ges.gov.gh,,YES,,,,,,,,,
SEFWI-WIAWSO SENIOR HIGH SCHOOL,,SEFWI-WIAWSO,"6?12'35.0""N","2?30'47.8""W",SHS,Public,"WESTERN
NORTH",SEFWI WIAWSO,,,,˜054 668 8491,sefwiwiawsoshs@ges.gov.gh,,YES,,,,,,,,,
SEFWI-WIAWSO SENIOR HIGH/TECH SCHOOL,,SEFWI-WIAWSO,"6?11'53.7""N","2?29'12.6""W",SHS,Public,"WESTERN
NORTH",SEFWI WIAWSO,,,,˜024 631 2393,sefwiwiawsoshst@ges.gov.gh,,YES,,,,,,,,,
"ST. JOSEPH SENIOR HIGH SCHOOL, SEFWI WIAWSO",,SEFWI WIAWSO,"6?16'11.5""N","˜2?29'28.6""W",SHS,Public,"WESTERN
NORTH",SEFWI WIAWSO,,,,˜020 307 1140,stjosephshs@ges.gov.gh,,YES,,,,,,,,,
DADIESO SENIOR HIGH SCHOOL,,DADIESO,"6?07'01.2""N","3?01'53.3""W",SHS,Public,"WESTERN
NORTH",SUAMAN,,,,˜024 267 6057,dadiesoshs@ges.gov.gh,,YES,,,,,,,,,
MANSO-AMENFI COMM. DAY SENIOR HIGH SCHOOL,,MANSO-AMENFI,"5?38'01.4""N","2?15'02.6""W",SHS,Public,"WESTERN
NORTH",WASSA AMENFI CENTRAL,,,, 020 893 4834,mansoamenficommshs@ges.gov.gh,,NO,,,,,,,,,
